Facility Name,Address,County,City,Zip,Number of Beds,Location
St. Mark's Terrace EHP #1,110 Chapel Street,Yates,Penn Yan,14527,27,"110 Chapel Street
Penn Yan, NY 14527
(42.66264999400005, -77.05661997999994)"
Clinton Crest Manor,411 Clinton Street,Yates,Penn Yan,14527,42,"411 Clinton Street
Penn Yan, NY 14527
(42.668670003000045, -77.04209003499994)"
Quail Summit,5102 Parrish Street Ext.,Ontario,Canandaigua,14424,55,"5102 Parrish Street Ext.
Canandaigua, NY 14424
(42.87406200200007, -77.29757304199995)"
The Kensington,100 Maple Avenue,Westchester,White Plains,10601,130,"100 Maple Avenue
White Plains, NY 10601
(41.02674100100006, -73.76738297499998)"
The Bristal at Lynbrook,8 Freer Street,Nassau,Lynbrook,11563,200,"8 Freer Street
Lynbrook, NY 11563
(40.655987002000074, -73.68418302999999)"
Ivy Lodge,108 Main Street,Ulster,Saugerties,12477,40,"108 Main Street
Saugerties, NY 12477
(42.07878200000005, -73.94857097099998)"
St. Mary's Manor,60 Doughty Boulevard,Nassau,Inwood,11096,28,"60 Doughty Boulevard
Inwood, NY 11096
(40.613606004000076, -73.74549296399994)"
The Landing at Queensbury,27 Woodvale Road,Warren,Queensbury,12804,88,"27 Woodvale Road
Queensbury, NY 12804
(43.33478999000005, -73.66139003699993)"
Village Walk A Carlisle Assisted Living Community,131 East Main Street,Suffolk,Patchogue,11772,146,"131 East Main Street
Patchogue, NY 11772
(40.765840352000055, -73.01207317699993)"
The Pines at Heartwood,2405 Fifteenth Street,Rensselaer,Troy,12180,86,"2405 Fifteenth Street
Troy, NY 12180
(42.739910019000035, -73.67489596499996)"
Cedarwood Senior Living,46 Cortland Street,Cortland,Homer,13077,35,"46 Cortland Street
Homer, NY 13077
(42.63228001200008, -76.18320999499997)"
Danforth Adult Care Center,19 Danforth Street,Rensselaer,Hoosick Falls,12090,80,"19 Danforth Street
Hoosick Falls, NY 12090
(42.90990599600008, -73.34765699399998)"
The Lodge at Ives Hill,1200 Jewell Drive,Jefferson,Watertown,13601,24,"1200 Jewell Drive
Watertown, NY 13601
(43.96240301100005, -75.93538704099996)"
Brookdale Kenmore,2971 Delaware Avenue,Erie,Kenmore,14217,120,"2971 Delaware Avenue
Kenmore, NY 14217
(42.964860016000046, -78.86997901799998)"
Arcadia Residence,25 Carrier Street,Sullivan,Liberty,12754,114,"25 Carrier Street
Liberty, NY 12754
(41.79450598200003, -74.74891800199998)"
Castle Senior Living at Forest Hills,108-25 Horace Harding Expressway,Queens,Forest Hills,11368,177,"108-25 Horace Harding Expressway
Forest Hills, NY 11368
(40.73851999900006, -73.85142203099997)"
Robynwood Assisted Living,43 Walnut Street,Otsego,Oneonta,13820,49,"43 Walnut Street
Oneonta, NY 13820
(42.457900007000035, -75.05889000099995)"
Atria Tanglewood,125 Ocean Avenue,Nassau,Lynbrook,11563,160,"125 Ocean Avenue
Lynbrook, NY 11563
(40.663219998000045, -73.65862903799996)"
Maplewood Commons,1015 Saw Mill River Road,Westchester,Ardsley,10502,80,"1015 Saw Mill River Road
Ardsley, NY 10502
(41.022001999000054, -73.84395802999995)"
"Fairlawn Adult Home, Inc.",301 Eighth Avenue,Suffolk,East Northport,11731,30,"301 Eighth Avenue
East Northport, NY 11731
(40.87701799900003, -73.32899602799995)"
Oyster Bay Manor,150 South Street,Nassau,Oyster Bay,11771,72,"150 South Street
Oyster Bay, NY 11771
(40.87091400300005, -73.53148897799997)"
Castle Gardens Keepsake Village,1715 Castle Gardens Road,Broome,Vestal,13850,48,"1715 Castle Gardens Road
Vestal, NY 13850
(42.07857999600003, -76.08120801699994)"
Greenfield Court,5951 Broadway,Erie,Lancaster,14086,57,"5951 Broadway
Lancaster, NY 14086
(42.89493064200008, -78.63177718599997)"
Jeffersonville Senior Living,4806 Route 52,Sullivan,Jeffersonville,12748,49,"4806 Route 52
Jeffersonville, NY 12748
(41.78045502000003, -74.92928297999998)"
Rockaway Manor HFA,145 Beach 8th Street,Queens,Far Rockaway,11691,120,"145 Beach 8th Street
Far Rockaway, NY 11691
(40.59542496300003, -73.74290830699994)"
Judson Meadows,39 Swaggertown Road,Schenectady,Glenville,12302,80,"39 Swaggertown Road
Glenville, NY 12302
(42.84558800600007, -73.95063702699997)"
Legacy at Cranberry Landing,300 Cranberry Landing Drive,Monroe,Rochester,14609,78,"300 Cranberry Landing Drive
Rochester, NY 14609
(43.189178981000055, -77.54899401099993)"
Willow Towers EHP,355 Pelham Road,Westchester,New Rochelle,10805,150,"355 Pelham Road
New Rochelle, NY 10805
(40.89824884500007, -73.77813565599996)"
Tennyson Court,49 Tennyson Court,Erie,Williamsville,14221,93,"49 Tennyson Court
Williamsville, NY 14221
(42.97111698100008, -78.69870203499994)"
Amber Court of Westbury,3400 Brush Hollow Road,Nassau,Westbury,11590,64,"3400 Brush Hollow Road
Westbury, NY 11590
(40.775064007000026, -73.56013203699996)"
Focus Senior Living at Utica,1445 Kemble Street,Oneida,Utica,13501,110,"1445 Kemble Street
Utica, NY 13501
(43.09318394200005, -75.24234862899993)"
Clark Meadows at Ferris Hills,One Clark Meadows,Ontario,Canandaigua,14424,54,"One Clark Meadows
Canandaigua, NY 14424
(42.882934025000054, -77.27807145499997)"
Loudonville Assisted Living Residence,298 Albany Shaker Road,Albany,Loudonville,12211,105,"298 Albany Shaker Road
Loudonville, NY 12211
(42.68220598000005, -73.75997001899998)"
Dominican Village Enriched Housing Program 1,565-567 Albany Avenue,Suffolk,Amityville,11701,66,"565-567 Albany Avenue
Amityville, NY 11701
(40.70548700200004, -73.40332900799996)"
Elderwood Village at Ticonderoga,101 Adirondack Drive Suite 201,Essex,Ticonderoga,12883,23,"101 Adirondack Drive Suite 201
Ticonderoga, NY 12883
(43.84824387500004, -73.43959621799996)"
Amber Court of Westbury,3400 Brush Hollow Road,Nassau,Westbury,11590,225,"3400 Brush Hollow Road
Westbury, NY 11590
(40.775064007000026, -73.56013203699996)"
Promenade at Chestnut Ridge,168 Red Schoolhouse Road,Rockland,Chestnut Ridge,10977,198,"168 Red Schoolhouse Road
Chestnut Ridge, NY 10977
(41.073481008000044, -74.05345003799994)"
Sunrise of West Babylon,580 Montauk Highway,Suffolk,West Babylon,11704,110,"580 Montauk Highway
West Babylon, NY 11704
(40.68683299300005, -73.34134801899995)"
Brightview Tarrytown,581 Old White Plains Rd,Westchester,Tarrytown,10591,107,"581 Old White Plains Rd
Tarrytown, NY 10591
(41.062530010000046, -73.83570998599998)"
Lockport Presbyterian Home,327 High Street,Niagara,Lockport,14094,60,"327 High Street
Lockport, NY 14094
(43.16385398300008, -78.68491598299994)"
Rainier Grove at Cherry Ridge,900 Cherry Ridge Road,Monroe,Webster,14580,87,"900 Cherry Ridge Road
Webster, NY 14580
(43.20947701700004, -77.46997001499994)"
Terrace at Beverwyck,41 Beverwyck Lane,Albany,Slingerlands,12159,48,"41 Beverwyck Lane
Slingerlands, NY 12159
(42.65945699200006, -73.83709501199996)"
Rudolf Steiner Fellowship Foundation,241 Hungry Hollow Road,Rockland,Spring Valley,10977,33,"241 Hungry Hollow Road
Spring Valley, NY 10977
(41.085513020000064, -74.06441599799996)"
Garnerville Home,216 Ramapo Road Route 202,Rockland,Garnerville,10923,39,"216 Ramapo Road Route 202
Garnerville, NY 10923
(41.20040900600003, -73.98547799999994)"
Frewsburg Rest Home,106 West Main Street,Chautauqua,Frewsburg,14738,81,"106 West Main Street
Frewsburg, NY 14738
(42.05298099300006, -79.16543004099998)"
Chelsea at Greenburgh,715 Dobbs Ferry Road,Westchester,Greenburgh,10607,137,"715 Dobbs Ferry Road
Greenburgh, NY 10607
(41.033689012000025, -73.82285298499994)"
Sunrise at Mill Basin,5905 Strickland Avenue,Kings,Brooklyn,11234,142,"5905 Strickland Avenue
Brooklyn, NY 11234
(40.60779998600003, -73.91619603799995)"
Holbrook Adult Home,73 North Street,Washington,Granville,12832,33,"73 North Street
Granville, NY 12832
(43.41341002100006, -73.26648999599996)"
The Lake Shore Assisted Living Residence,211 Lake Shore Road,Suffolk,Lake Ronkonkoma,11779,200,"211 Lake Shore Road
Lake Ronkonkoma, NY 11779
(40.82736201200004, -73.11578203599998)"
Elm York Home for Adults,100-30 Ditmars Boulevard,Queens,East Elmhurst,11369,262,"100-30 Ditmars Boulevard
East Elmhurst, NY 11369
(40.76958999500005, -73.87002398899995)"
Atria Briarcliff Manor,1025 Pleasantville Road,Westchester,Briarcliff Manor,10510,200,"1025 Pleasantville Road
Briarcliff Manor, NY 10510
(41.14699599900007, -73.82658200999998)"
The Waterford on the Bay,2900 Bragg Street,Kings,Brooklyn,11235,200,"2900 Bragg Street
Brooklyn, NY 11235
(40.58350001000008, -73.93301499699999)"
The Hawthorne,1 Johnsarbor Dr. E,Monroe,Rochester,14620,42,"1 Johnsarbor Dr. E
Rochester, NY 14620
(43.12280801300005, -77.59894001199996)"
"Kingsway Manor, LLC",357 Kings Road,Schenectady,Schenectady,12304,140,"357 Kings Road
Schenectady, NY 12304
(42.77533500100003, -73.91328801999998)"
Shire Senior Living Assisted Living Program,2515 Culver Road,Monroe,Rochester,14609,200,"2515 Culver Road
Rochester, NY 14609
(43.19297300800008, -77.56137500399996)"
Evergreen Heights,8939 Oakland Street,Cayuga,Weedsport,13166,60,"8939 Oakland Street
Weedsport, NY 13166
(43.05056200000007, -76.57277897799997)"
Updyke's Willow Ridge Quality Care Facility,131 Hornell Street,Steuben,Hornell,14843,40,"131 Hornell Street
Hornell, NY 14843
(42.33264298300003, -77.66556499399996)"
St. Vincent de Paul Assisted Living Program,900 Interval Avenue,Bronx,Bronx,10459,59,"900 Interval Avenue
Bronx, NY 10459
(40.819330011000034, -73.89583899399997)"
The Hearth at Greenpoint Senior Living,150 Old Liverpool Road,Onondaga,Liverpool,13088,139,"150 Old Liverpool Road
Liverpool, NY 13088
(43.08319501300008, -76.18038403599996)"
E.R.I.E.  EHP #1 Toomey Abbott Tower,1207 Almond Street,Onondaga,Syracuse,13210,95,"1207 Almond Street
Syracuse, NY 13210
(43.039017982000075, -76.14087501399996)"
"Carlucci Homes, Inc.",516 Mullock Road,Orange,Port Jervis,12771,23,"516 Mullock Road
Port Jervis, NY 12771
(41.40176298200004, -74.56650398399995)"
Gables Home for Adults,127 Rider Avenue,Suffolk,Patchogue,11772,24,"127 Rider Avenue
Patchogue, NY 11772
(40.76069700600004, -73.00834699199999)"
"Good Shepherd- Fairview Home, Inc.",80 Fairview Avenue,Broome,Binghamton,13904,67,"80 Fairview Avenue
Binghamton, NY 13904
(42.11064299700007, -75.87594099199998)"
Morningside at Home Assisted Living Program,1000 Pelham Parkway South,Bronx,Bronx,10461,40,"1000 Pelham Parkway South
Bronx, NY 10461
(40.85672997900008, -73.85966596799994)"
305 West End Assisted Living,305 West End Avenue,New York,New York,10023,145,"305 West End Avenue
New York, NY 10023
(40.78152000000006, -73.98344203499994)"
Green Hills Estate,1 South Route 9W,Rockland,Haverstraw,10927,164,"1 South Route 9W
Haverstraw, NY 10927
(41.19273399100007, -73.96779503399995)"
Orchard Grove Residences,2000 Southwestern Drive W. E.,Chautauqua,Jamestown,14701,36,"2000 Southwestern Drive W. E.
Jamestown, NY 14701
(42.086997318000044, -79.29496258399996)"
Manor Hills,4192-B Bolivar Road,Allegany,Wellsville,14895,137,"4192-B Bolivar Road
Wellsville, NY 14895
(42.12911700500007, -77.96607902199997)"
The Village at Mill Landing,45 Mill Road,Monroe,Rochester,14626,150,"45 Mill Road
Rochester, NY 14626
(43.230646017000026, -77.70028401099995)"
Sunrise of Staten Island,801 Narrows Road,Richmond,Staten Island,10304,121,"801 Narrows Road
Staten Island, NY 10304
(40.61135001500003, -74.09515000599998)"
Parkwood Heights Senior Living Community,1340 Parkwood Drive,Wayne,Macedon,14502,49,"1340 Parkwood Drive
Macedon, NY 14502
(43.061037904000045, -77.31444468999996)"
Glenwell,2248 Old Union Road,Erie,Cheektowaga,14227,120,"2248 Old Union Road
Cheektowaga, NY 14227
(42.87191383600003, -78.75531948499997)"
Alice Hyde Assisted Living Program,45 Sixth Street,Franklin,Malone,12953,30,"45 Sixth Street
Malone, NY 12953
(44.86215199600008, -74.28933095899998)"
Long Island Living Center,431 Beach 20th Street,Queens,Far Rockaway,11691,306,"431 Beach 20th Street
Far Rockaway, NY 11691
(40.59904001700005, -73.75442396599993)"
Queens Adult Care Center,80-08 45th Avenue,Queens,Elmhurst,11373,352,"80-08 45th Avenue
Elmhurst, NY 11373
(40.74127001700003, -73.88439300199997)"
Hilton East Assisted Living,231 East Avenue,Monroe,Hilton,14468,205,"231 East Avenue
Hilton, NY 14468
(43.28929398400004, -77.78535999299999)"
Marian Woods,152 Ridge Road,Westchester,Hartsdale,10530,50,"152 Ridge Road
Hartsdale, NY 10530
(41.020588014000054, -73.80788198399995)"
Missionary Sisters of St. Benedict,350 Cuba Hill Road,Suffolk,Huntington,11743,60,"350 Cuba Hill Road
Huntington, NY 11743
(40.84567198600007, -73.33698096399996)"
Sunrise at Sheepshead Bay,2211 Emmons Avenue,Kings,Brooklyn,11235,189,"2211 Emmons Avenue
Brooklyn, NY 11235
(40.58394001800008, -73.94588398499997)"
Family Srvs/Rochester EHP3 Hudson-Ridge Towers,401 Seneca Manor Drive,Monroe,Rochester,14621,47,"401 Seneca Manor Drive
Rochester, NY 14621
(43.192977995000035, -77.60331201299994)"
Claremont Village ALP,1160 Teller Avenue,Bronx,Bronx,10456,70,"1160 Teller Avenue
Bronx, NY 10456
(40.83159001100006, -73.91174801299996)"
Braemar Living at Medford,1529 North Ocean Avenue,Suffolk,Medford,11763,200,"1529 North Ocean Avenue
Medford, NY 11763
(40.81029201400003, -73.01804803899995)"
Southern Tier Meadows,4883 West Main Road,Chautauqua,Fredonia,14063,24,"4883 West Main Road
Fredonia, NY 14063
(42.41849399800003, -79.37857303699997)"
Elderwood Village at Williamsville,5271 Main Street,Erie,Williamsville,14221,110,"5271 Main Street
Williamsville, NY 14221
(42.96029498000007, -78.75654403999994)"
Loretto EHP #1 Bernardine Apartments,417 Churchill Avenue,Onondaga,Syracuse,13205,148,"417 Churchill Avenue
Syracuse, NY 13205
(43.00885499100008, -76.13928697799997)"
Country Valley Home,5946 County Route 11,Steuben,Bath,14810,19,"5946 County Route 11
Bath, NY 14810
(42.28900398700006, -77.29317296199997)"
Cloverhill Adult Home,355 South Main Street,Orleans,Albion,14411,44,"355 South Main Street
Albion, NY 14411
(43.234810984000035, -78.19357099899997)"
Mermaid Manor Home for Adults,3602 Mermaid Avenue,Kings,Brooklyn,11224,200,"3602 Mermaid Avenue
Brooklyn, NY 11224
(40.57459000500006, -74.00194801999999)"
Atria Cutter Mill,96 Cutter Mill Road,Nassau,Great Neck,11021,130,"96 Cutter Mill Road
Great Neck, NY 11021
(40.784154013000034, -73.73208501999994)"
Buckley Landing Enriched Housing Site #6,7430 Buckley Road,Onondaga,North Syracuse,13212,90,"7430 Buckley Road
North Syracuse, NY 13212
(43.131704984000066, -76.16304699199998)"
South Bay Adult Home,"33 Cottontail Run, Box 601",Suffolk,Center Moriches,11934,39,"33 Cottontail Run, Box 601
Center Moriches, NY 11934
(40.78899799900006, -72.81534403199998)"
Bethany Village,3005 Watkins Road,Chemung,Horseheads,14845,144,"3005 Watkins Road
Horseheads, NY 14845
(42.18501000800006, -76.83612001899996)"
"Glen Arden, Inc.",214 Harriman Drive,Orange,Goshen,10924,28,"214 Harriman Drive
Goshen, NY 10924
(41.38654999500005, -74.31586001699998)"
Dutchess Care,186 Washington Street,Dutchess,Poughkeepsie,12601,92,"186 Washington Street
Poughkeepsie, NY 12601
(41.71450201500005, -73.93027101399997)"
NY Found-Sr Citizens EHP#5 Clinton Gardens,404-412 W. 54 St.- Clinton Gardens,New York,New York,10019,47,"404-412 W. 54 St.- Clinton Gardens
New York, NY 10019
(40.76622998400006, -73.98794403999995)"
Metro Interfaith EHP,110 Chenango Place,Broome,Binghamton,13901,37,"110 Chenango Place
Binghamton, NY 13901
(42.101495742000054, -75.90889036399994)"
Rosewood on the Sound,59 Bayville Avenue,Nassau,Bayville,11709,50,"59 Bayville Avenue
Bayville, NY 11709
(40.91089999800005, -73.57390098899998)"
Elmore Home for Adults,330 Elmore Street,Suffolk,Central Islip,11722,22,"330 Elmore Street
Central Islip, NY 11722
(40.784234982000044, -73.19960400099995)"
Mountain Valley Manor,373-421 Wilbur Avenue,Ulster,Kingston,12401,53,"373-421 Wilbur Avenue
Kingston, NY 12401
(41.92254500100006, -74.00889603099995)"
Hamilton Manor Home for Adults,8196 Green Road,Madison,Hubbardsville,13355,38,"8196 Green Road
Hubbardsville, NY 13355
(42.814929980000045, -75.45712000499998)"
Seabury Woods,110 Dalaker Drive,Monroe,Rochester,14624,85,"110 Dalaker Drive
Rochester, NY 14624
(43.13969700300004, -77.74141099199994)"
The Bristal at Lake Grove,2995 Middle Country Road,Suffolk,Lake Grove,11755,155,"2995 Middle Country Road
Lake Grove, NY 11755
(40.860806542000034, -73.11679738999999)"
Promenade at Tuxedo Place,40 Hospital Road,Orange,Tuxedo,10987,89,"40 Hospital Road
Tuxedo, NY 10987
(41.19040011000004, -74.18627935599994)"
The New Golden Acres SP LLC,11 Prospect Street,Rockland,Spring Valley,10977,79,"11 Prospect Street
Spring Valley, NY 10977
(41.11988599000006, -74.03991804199995)"
Plattduetsche Home Society,1150 Hempstead Turnpike,Nassau,Franklin Square,11010,90,"1150 Hempstead Turnpike
Franklin Square, NY 11010
(40.708721998000044, -73.68272700999995)"
The 80th Street Residence,430 East 80th Street,New York,New York,10075,70,"430 East 80th Street
New York, NY 10075
(40.77224001800005, -73.95063602099998)"
Kendal at Ithaca,2230 North Triphammer Road,Tompkins,Ithaca,14850,36,"2230 North Triphammer Road
Ithaca, NY 14850
(42.47578501800007, -76.48508499199994)"
Bristol Home,1500 Main Street,Erie,Buffalo,14209,55,"1500 Main Street
Buffalo, NY 14209
(42.914294006000034, -78.86547801999995)"
The Regency at Glen Cove,94 School Street,Nassau,Glen Cove,11542,143,"94 School Street
Glen Cove, NY 11542
(40.86720501100007, -73.63042200599995)"
Champlain Valley Senior Community,10 Gilliland Lane,Essex,Willsboro,12996,81,"10 Gilliland Lane
Willsboro, NY 12996
(44.364294803000064, -73.39056214399994)"
White Plains Guest Home for Adults,32 Ridgeview Avenue,Westchester,White Plains,10606,15,"32 Ridgeview Avenue
White Plains, NY 10606
(41.02165498800008, -73.78060198999998)"
Atria Forest Hills,112-50 72nd Avenue,Queens,Forest Hills,11375,90,"112-50 72nd Avenue
Forest Hills, NY 11375
(40.72212000900004, -73.83687800399997)"
Eden Heights,4071 Hardt Road,Erie,Eden,14057,120,"4071 Hardt Road
Eden, NY 14057
(42.66522198100006, -78.83338102999994)"
Park Inn Home,115-02 Ocean Promenade,Queens,Rockaway Park,11694,181,"115-02 Ocean Promenade
Rockaway Park, NY 11694
(40.57815000900007, -73.83528896299998)"
Jeff Senior Living,4804 Route 52- East Main Street,Sullivan,Jeffersonville,12748,11,"4804 Route 52- East Main Street
Jeffersonville, NY 12748
(41.78011299700006, -74.92841000399994)"
The Belvedere,5110 19th Avenue,Kings,Brooklyn,11204,200,"5110 19th Avenue
Brooklyn, NY 11204
(40.62589001900005, -73.98021701399995)"
Home of the Good Shepherd Saratoga,394-402 Church Street,Saratoga,Saratoga Springs,12866,105,"394-402 Church Street
Saratoga Springs, NY 12866
(43.085849980000035, -73.82032299099995)"
Adirondack Manor HFA D.B.A. Willow Park HFA,1550 Herkimer Road,Oneida,Utica,13502,60,"1550 Herkimer Road
Utica, NY 13502
(43.10668999000006, -75.17027996299998)"
Chenango Valley Home,24 Canasawacta Street,Chenango,Norwich,13815,32,"24 Canasawacta Street
Norwich, NY 13815
(42.53170999800005, -75.53013995999999)"
The Bristal at North Hills,99 South Service Road,Nassau,North Hills,11040,140,"99 South Service Road
North Hills, NY 11040
(40.77034179300006, -73.68789924599997)"
McHarrie Pointe,7740 Meigs Road,Onondaga,Baldwinsville,13027,47,"7740 Meigs Road
Baldwinsville, NY 13027
(43.144412997000074, -76.34394899799997)"
Birchwood Suites,423 Clay Pitts Road,Suffolk,East Northport,11731,95,"423 Clay Pitts Road
East Northport, NY 11731
(40.86907199600006, -73.29986002899994)"
The Eliot at Catskill,122 Jefferson Heights,Greene,Catskill,12414,98,"122 Jefferson Heights
Catskill, NY 12414
(42.22960998900004, -73.87378997799993)"
Home of the Good Shepherd Moreau,186-200 Bluebird Road,Saratoga,Moreau,12803,72,"186-200 Bluebird Road
Moreau, NY 12803
(43.28803760900007, -73.61335396799996)"
Canterbury Woods,725 Renaissance Drive,Erie,Williamsville,14221,32,"725 Renaissance Drive
Williamsville, NY 14221
(42.99610576100008, -78.69871192799997)"
Home Sweet Home of Athens,71 Second Street,Greene,Athens,12015,24,"71 Second Street
Athens, NY 12015
(42.26239999400008, -73.81406003299998)"
The Bixby Home,8342 North Main Street P.O. Box 419,Seneca,Interlaken,14847,24,"8342 North Main Street P.O. Box 419
Interlaken, NY 14847
(42.62009000100005, -76.72544000499994)"
"Absolut at Orchard Brooke, LLC",6060 Armor Road,Erie,Orchard Park,14127,80,"6060 Armor Road
Orchard Park, NY 14127
(42.751297101000034, -78.76266387599998)"
The Bristal at Massapequa,400 County Line Road,Nassau,Massapequa,11758,84,"400 County Line Road
Massapequa, NY 11758
(40.68509001800004, -73.42656297299999)"
Sunrise of Dix Hills,337 Deer Park Avenue,Suffolk,Dix Hills,11746,114,"337 Deer Park Avenue
Dix Hills, NY 11746
(40.81618645000003, -73.34268698399995)"
Atria Shaker,345 Northern Boulevard,Albany,Albany,12204,146,"345 Northern Boulevard
Albany, NY 12204
(42.67334098600003, -73.75351100899996)"
Brookdale Niagara Assisted Living,6741 Nash Road,Niagara,North Tonawanda,14120,53,"6741 Nash Road
North Tonawanda, NY 14120
(43.09747999700005, -78.86530702899995)"
The Osborn,101 Theall Road,Westchester,Rye,10580,103,"101 Theall Road
Rye, NY 10580
(40.97140799300007, -73.69877801899997)"
Palisade Gardens,185 Palisade Avenue,Westchester,Yonkers,10703,106,"185 Palisade Avenue
Yonkers, NY 10703
(40.94047298700008, -73.89405800699996)"
The Clark Manor House,318 Fort Hill Avenue,Ontario,Canandaigua,14424,17,"318 Fort Hill Avenue
Canandaigua, NY 14424
(42.90010298300007, -77.27327298199998)"
Crystal House Manor,"97 Mills Street, P.O. Box 576",Dutchess,Dover Plains,12522,39,"97 Mills Street, P.O. Box 576
Dover Plains, NY 12522
(41.74224100200007, -73.57187701099997)"
Hillcrest Spring Residential,"5052 Rte30 Upper Market St, POB 383",Montgomery,Amsterdam,12010,80,"5052 Rte30 Upper Market St, POB 383
Amsterdam, NY 12010
(42.95703001900006, -74.18690996899994)"
Peregrine Senior Living at Onondaga Hill,4701 Peregrine Way,Onondaga,Syracuse,13207,68,"4701 Peregrine Way
Syracuse, NY 13207
(43.001690015000065, -76.19008499999995)"
Sedgwick Heights,1100 James Street,Onondaga,Syracuse,13203,154,"1100 James Street
Syracuse, NY 13203
(43.06066701300006, -76.13058899299995)"
Helen Keller National Center,111 Middle Neck Road,Nassau,Sands Point,11050,52,"111 Middle Neck Road
Sands Point, NY 11050
(40.854676235000056, -73.69618534099999)"
Amber Court  of Smithtown,130-132 Lake Avenue,Suffolk,Nesconset,11767,186,"130-132 Lake Avenue
Nesconset, NY 11767
(40.867877203000035, -73.15496645599995)"
Atria Guilderland,300 Mill Rose Court,Albany,Slingerlands,12159,120,"300 Mill Rose Court
Slingerlands, NY 12159
(42.68486300100005, -73.90427202599994)"
Atria Park of Lynbrook,100 Peninsula Boulevard,Nassau,Lynbrook,11563,140,"100 Peninsula Boulevard
Lynbrook, NY 11563
(40.65579099100006, -73.67941598999994)"
Bida Adult Home,4 Washington Park Rd,Chenango,Oxford,13830,28,"4 Washington Park Rd
Oxford, NY 13830
(42.44007015300008, -75.59131638699995)"
The Springs at Fountainview,2000 Fountainview Drive,Rockland,Monsey,10952,60,"2000 Fountainview Drive
Monsey, NY 10952
(41.112909020000075, -74.09044800999999)"
Orchard Heights,5200 Chestnut Ridge Road,Erie,Orchard Park,14127,200,"5200 Chestnut Ridge Road
Orchard Park, NY 14127
(42.74412599100003, -78.74976400199995)"
Willow Gardens,60 Willow Drive,Westchester,New Rochelle,10805,51,"60 Willow Drive
New Rochelle, NY 10805
(40.897419006000064, -73.77952499999998)"
Atria Bay Shore,53 Ocean Ave.,Suffolk,Bay Shore,11706,116,"53 Ocean Ave.
Bay Shore, NY 11706
(40.717453007000074, -73.24634199599996)"
Heritage Manor of Lockport,41 Lexington Court,Niagara,Lockport,14094,64,"41 Lexington Court
Lockport, NY 14094
(43.16237399000005, -78.66338798699996)"
The Fountains at RiverVue,1 Rivervue Place,Westchester,Tuckahoe,10707,141,"1 Rivervue Place
Tuckahoe, NY 10707
(40.95207709400006, -73.82966580799996)"
St. Francis Park,5229 South Park Avenue,Erie,Hamburg,14075,36,"5229 South Park Avenue
Hamburg, NY 14075
(42.75447801800004, -78.82568702999998)"
Crimson Ridge Meadows,3 Treeline Drive,Monroe,Rochester,14612,52,"3 Treeline Drive
Rochester, NY 14612
(43.250650979000056, -77.67513000299994)"
Promenade at Blue Hill,582 Veterans Memorial Drive,Rockland,Pearl River,10965,61,"582 Veterans Memorial Drive
Pearl River, NY 10965
(41.05176001800004, -74.00575600299999)"
The Bristal at North Woodmere,477 Hungry Harbor Road,Nassau,North Woodmere,11581,155,"477 Hungry Harbor Road
North Woodmere, NY 11581
(40.643770001000064, -73.72347001599996)"
"The Eliot at Troy, LLC",2902 Upper Tibbits Avenue,Rensselaer,Troy,12180,155,"2902 Upper Tibbits Avenue
Troy, NY 12180
(42.73094000000003, -73.66400703499994)"
Sunrise of Crestwood,65 Crisfield Street,Westchester,Yonkers,10710,116,"65 Crisfield Street
Yonkers, NY 10710
(40.976213003000055, -73.82832100299999)"
Brothers of Mercy Sacred Heart Home,"4520 Ransom Road, P.O. Box 117",Erie,Clarence,14031,70,"4520 Ransom Road, P.O. Box 117
Clarence, NY 14031
(42.96920200900007, -78.59267397699995)"
Clara Welch Thanksgiving Home,48 Grove Street,Otsego,Cooperstown,13326,26,"48 Grove Street
Cooperstown, NY 13326
(42.698000000000036, -74.93431002599993)"
Brookdale Bellevue,4330 Onondaga Boulevard,Onondaga,Syracuse,13219,91,"4330 Onondaga Boulevard
Syracuse, NY 13219
(43.02535900100003, -76.21517496899997)"
Alma Rangel Gardens NY Foundation EHP#7,55 West 137th Street,New York,New York,10037,42,"55 West 137th Street
New York, NY 10037
(40.814959980000026, -73.93857798299996)"
Madison York Home for Adults,61-80 Woodhaven Boulevard,Queens,Rego Park,11374,202,"61-80 Woodhaven Boulevard
Rego Park, NY 11374
(40.727069984000025, -73.87099402699994)"
The Hearth at Castle Gardens,1715 Castle Gardens Road,Broome,Vestal,13850,58,"1715 Castle Gardens Road
Vestal, NY 13850
(42.07857999600003, -76.08120801699994)"
Underwood Manor,"4460 Union Hill Road, R.D. #1",Cattaraugus,Hinsdale,14743,32,"4460 Union Hill Road, R.D. #1
Hinsdale, NY 14743
(42.18832500800005, -78.35335203399995)"
Norwegian Christian Home and Health Care Center,1250-1270 67th Street,Kings,Brooklyn,11219,88,"1250-1270 67th Street
Brooklyn, NY 11219
(40.624819985000045, -74.00369698799994)"
Woodlawn Commons,156 Lawrence Street,Saratoga,Saratoga Springs,12866,42,"156 Lawrence Street
Saratoga Springs, NY 12866
(43.09006820900004, -73.79129148199996)"
New Sunnyside Adult Home,7010 Collamer Road,Onondaga,East Syracuse,13057,20,"7010 Collamer Road
East Syracuse, NY 13057
(43.10885398800008, -76.03740796299996)"
The Pavilion at Robinson Terrace,One Buntline Drive,Delaware,Stamford,12167,60,"One Buntline Drive
Stamford, NY 12167
(42.40194479200005, -74.61881055799995)"
Atria East Northport,10 Cheshire Place,Suffolk,East Northport,11731,200,"10 Cheshire Place
East Northport, NY 11731
(40.875456995000036, -73.32197098699999)"
Woodcrest Commons,4455 West Henrietta Road,Monroe,Henrietta,14467,120,"4455 West Henrietta Road
Henrietta, NY 14467
(43.06357800600006, -77.65001597699995)"
Heritage Home for Women,1519 Union Street,Schenectady,Schenectady,12309,36,"1519 Union Street
Schenectady, NY 12309
(42.80766098400005, -73.91127896199998)"
The Villa at Westhampton,68 Old Country Road,Suffolk,Westhampton,11977,100,"68 Old Country Road
Westhampton, NY 11977
(40.82676798600005, -72.67675102299995)"
"Cedarbrook Village, Incorporated",101 Sitrin Lane,Oneida,New Hartford,13413,65,"101 Sitrin Lane
New Hartford, NY 13413
(43.068400000000054, -75.28725999999995)"
The W Assisted Living at Riverdale Home for Adults,6355 Broadway,Bronx,Bronx,10471,256,"6355 Broadway
Bronx, NY 10471
(40.901429998000026, -73.89703198999996)"
Samaritan Summit Village,22691 Campus Drive,Jefferson,Watertown,13601,120,"22691 Campus Drive
Watertown, NY 13601
(43.94875501000007, -75.90798198999994)"
Seniorfirst Assisted Living at Valley Manor,1530 East Avenue,Monroe,Rochester,14610,13,"1530 East Avenue
Rochester, NY 14610
(43.148626999000044, -77.56310896799994)"
St. Louise Manor,861 Front Street,Broome,Binghamton,13905,52,"861 Front Street
Binghamton, NY 13905
(42.13065011300006, -75.90595411599998)"
Fox Run at Orchard Park,One Fox Run Lane,Erie,Orchard Park,14127,52,"One Fox Run Lane
Orchard Park, NY 14127
(42.76296000100007, -78.77292998999997)"
"Manor Haven Adult Home, Inc.",222 Columbia Street,Suffolk,Huntington Station,11746,32,"222 Columbia Street
Huntington Station, NY 11746
(40.848768009000025, -73.41969098599998)"
Atria Park of Great Neck,51 Great Neck Road,Nassau,Great Neck,11021,162,"51 Great Neck Road
Great Neck, NY 11021
(40.78600100700004, -73.72841198599997)"
Brookdale Ithaca Memory Care,101 Bundy Road,Tompkins,Ithaca,14850,36,"101 Bundy Road
Ithaca, NY 14850
(42.46044376300006, -76.52962214099995)"
NY Found-Sr Citizens EHP#2 Brown Gardens,225 East 93rd Street,New York,New York,10128,47,"225 East 93rd Street
New York, NY 10128
(40.782849999000064, -73.94952399399995)"
Atria Greece,150 Towngate Road,Monroe,Rochester,14626,79,"150 Towngate Road
Rochester, NY 14626
(43.205477005000034, -77.69812097699997)"
Sanford Home,140-40 Sanford Avenue,Queens,Flushing,11355,200,"140-40 Sanford Avenue
Flushing, NY 11355
(40.75739001000005, -73.82560996099994)"
"Camphill Ghent, Inc.",2542 Route 66,Columbia,Chatham,12037,31,"2542 Route 66
Chatham, NY 12037
(42.34524001900007, -73.61335997199996)"
Pearl Garden Manor,36 Locust Avenue,Suffolk,Islip,11751,26,"36 Locust Avenue
Islip, NY 11751
(40.73038402000003, -73.21323800499994)"
Juniper Glen Alzheimer's Special Care Center,8820 Transit Road,Erie,East Amherst,14051,66,"8820 Transit Road
East Amherst, NY 14051
(43.00880901700003, -78.69806098699996)"
Bishop's Commons at St. Luke,4 Burkle Street,Oswego,Oswego,13126,68,"4 Burkle Street
Oswego, NY 13126
(43.44699299600006, -76.49499701199994)"
The Club at Briarcliff Manor,25 Scarborough Road,Westchester,Briarcliff Manor,10510,145,"25 Scarborough Road
Briarcliff Manor, NY 10510
(41.14864199500005, -73.83967403999998)"
Pleasant Gardens Home for Adults,396 Middle Road,Suffolk,Bayport,11705,27,"396 Middle Road
Bayport, NY 11705
(40.735882004000075, -73.06373100399998)"
Valley Vista Adult Home and Assisted Living Program,141 North Road,Ulster,Highland,12528,89,"141 North Road
Highland, NY 12528
(41.73570198600004, -73.96626198399997)"
"The Shores at Peconic Landing Assisted Living Residence, Inc.",1600 Brecknock Road,Suffolk,Greenport,11944,47,"1600 Brecknock Road
Greenport, NY 11944
(41.121191268000075, -72.36333078399997)"
The Willows,459 East Oak Orchard Street,Orleans,Medina,14103,24,"459 East Oak Orchard Street
Medina, NY 14103
(43.21497998800004, -78.37275102699994)"
Crossroads,120 Gifford Street,Onondaga,Syracuse,13202,59,"120 Gifford Street
Syracuse, NY 13202
(43.04378699200004, -76.15498401999997)"
The Glen at Maple Pointe,260 Maple Avenue,Nassau,Rockville Center,11570,83,"260 Maple Avenue
Rockville Center, NY 11570
(40.65809098600005, -73.63186101099996)"
The Bristal at Armonk,90 Business Park Drive,Westchester,Armonk,10504,171,"90 Business Park Drive
Armonk, NY 10504
(41.122580017000075, -73.70631301499998)"
The W Senior Living at Goshen,46 Harriman Drive,Orange,Goshen,10924,120,"46 Harriman Drive
Goshen, NY 10924
(41.386654014000044, -74.32170102999999)"
Signature Senior Living,631 Foster Avenue,Kings,Brooklyn,11230,199,"631 Foster Avenue
Brooklyn, NY 11230
(40.63057998700003, -73.97058897399995)"
Adirondack Manor HFA D.B.A Scotia Mansion,39 Wallace Street,Schenectady,Scotia,12302,49,"39 Wallace Street
Scotia, NY 12302
(42.833143018000044, -73.96044502699993)"
Promenade at University Place,1228 Western Avenue,Albany,Albany,12203,200,"1228 Western Avenue
Albany, NY 12203
(42.67753902000004, -73.82805303399994)"
Westwood Commons Adult Home,50 Union Square Boulevard,Monroe,North Chili,14514,120,"50 Union Square Boulevard
North Chili, NY 14514
(43.113007011000036, -77.80948101399997)"
Assisted Living at Northern Riverview,89 South Route 9W,Rockland,Haverstraw,10927,105,"89 South Route 9W
Haverstraw, NY 10927
(41.18888300900005, -73.96232902699995)"
Bergquist Memorial Assisted Living Residences,"4600 Route 60, P.O. Box 350",Chautauqua,Gerry,14740,32,"4600 Route 60, P.O. Box 350
Gerry, NY 14740
(42.197512999000026, -79.25280903399994)"
New Gloria's Manor Home for Adults,140 Beach 119th Street,Queens,Rockaway Park,11694,172,"140 Beach 119th Street
Rockaway Park, NY 11694
(40.57746001100003, -73.83871297099995)"
Elderwood Village at Fairport,7 Chardonnay Drive,Monroe,Fairport,14450,80,"7 Chardonnay Drive
Fairport, NY 14450
(43.067240018000064, -77.43665597299997)"
Harbor View Home for Adults,3900 Shore Parkway,Kings,Brooklyn,11235,162,"3900 Shore Parkway
Brooklyn, NY 11235
(40.58465000700005, -73.93091097199994)"
Cohocton Valley Home for Adults,64 South Main Street,Steuben,Avoca,14809,10,"64 South Main Street
Avoca, NY 14809
(42.40626501000003, -77.42061300999995)"
Adirondack Manor HFA D.B.A Adirondack Manor HFA ALP,653 Bay Road,Warren,Queensbury,12804,60,"653 Bay Road
Queensbury, NY 12804
(43.35334999600008, -73.65848998199994)"
Dosberg Manor,2680 North Forest Road,Erie,Amherst,14068,96,"2680 North Forest Road
Amherst, NY 14068
(43.01497320800007, -78.78545993799997)"
The Gardens by Morningstar,132 Ellen Street,Oswego,Oswego,13126,106,"132 Ellen Street
Oswego, NY 13126
(43.443509016000064, -76.51259599099996)"
Maple Rest,61 Rollstone Avenue,Suffolk,West Sayville,11796,27,"61 Rollstone Avenue
West Sayville, NY 11796
(40.731784008000034, -73.09814902599999)"
West Seventy-Fourth Street Home,300 Amsterdam Avenue,New York,New York,10023,95,"300 Amsterdam Avenue
New York, NY 10023
(40.780129987000066, -73.98074197299997)"
Brookdale Ithaca Assisted Living,103 Bundy Road,Tompkins,Ithaca,14850,53,"103 Bundy Road
Ithaca, NY 14850
(42.45917502000003, -76.52943498299999)"
The Farrar Home,46 Constable Street,Franklin,Malone,12953,30,"46 Constable Street
Malone, NY 12953
(44.85518399400007, -74.28743899499995)"
Sunrise of North Lynbrook,53 Franklin Avenue,Nassau,Lynbrook,11563,138,"53 Franklin Avenue
Lynbrook, NY 11563
(40.669846018000044, -73.67396297599998)"
Boulevard ALP,71-61 159th Street,Queens,Flushing,11365,239,"71-61 159th Street
Flushing, NY 11365
(40.72850002000007, -73.80993303599996)"
The Inn at Millbrook,560 Flint Road,Dutchess,Millbrook,12545,40,"560 Flint Road
Millbrook, NY 12545
(41.73821576100005, -73.66432411799997)"
RPH-West,48 Cottage Grove Circle,Monroe,North Chili,14514,52,"48 Cottage Grove Circle
North Chili, NY 14514
(43.12069698800008, -77.80998702999995)"
Meadowview at the Wartburg,2 Wartburg Place,Westchester,Mount Vernon,10552,105,"2 Wartburg Place
Mount Vernon, NY 10552
(40.917747924000025, -73.81316105299999)"
Brookhaven Care Center,111 Beaverdam Road,Suffolk,Brookhaven,11719,182,"111 Beaverdam Road
Brookhaven, NY 11719
(40.773340017000066, -72.93456696599998)"
Yorktown Assisted Living Residence,2276 Catherine Street,Westchester,Cortlandt Manor,10567,85,"2276 Catherine Street
Cortlandt Manor, NY 10567
(41.281014422000055, -73.84979992099994)"
Woodland Pond at New Paltz,100 Woodland Pond Circle,Ulster,New Paltz,12561,60,"100 Woodland Pond Circle
New Paltz, NY 12561
(41.758050989000026, -74.06229596299994)"
The Bristal at Jericho,310 Jericho Turnpike,Nassau,Jericho,11753,200,"310 Jericho Turnpike
Jericho, NY 11753
(40.79182701700006, -73.54164097199998)"
The Meadows,2650 North Forest Road,Erie,Getzville,14068,48,"2650 North Forest Road
Getzville, NY 14068
(43.01405388000006, -78.78447154699995)"
Home of  the Good Shepherd at Highpointe,26 Rock Rose Way,Saratoga,Malta,12020,86,"26 Rock Rose Way
Malta, NY 12020
(42.98375001800008, -73.78767296399997)"
Five Star Premier Residences of Yonkers,537 Riverdale Avenue,Westchester,Yonkers,10705,84,"537 Riverdale Avenue
Yonkers, NY 10705
(40.91373400300006, -73.90327600499995)"
McPeak's Adult Home,286 North Ocean Avenue,Suffolk,Patchogue,11772,51,"286 North Ocean Avenue
Patchogue, NY 11772
(40.77353301000005, -73.01572097099995)"
Family Srvs/Rochester EHP2 Jonathan Child Project,399 Colvin Avenue,Monroe,Rochester,14611,30,"399 Colvin Avenue
Rochester, NY 14611
(43.158644002000074, -77.64177296199995)"
Atria Crossgate,140 Washington Avenue Extension,Albany,Albany,12203,83,"140 Washington Avenue Extension
Albany, NY 12203
(42.69492799100004, -73.85116898199993)"
The Manor House,427 East Main Street,Genesee,Batavia,14020,60,"427 East Main Street
Batavia, NY 14020
(42.99662998600007, -78.17324999599998)"
Field of Dreams Senior Living,3260 N. 7th Street,Cattaraugus,Allegany,14706,140,"3260 N. 7th Street
Allegany, NY 14706
(42.09106857300003, -78.47664583699998)"
New Broadview Home For Adults,70 Father Capodanno Boulevard,Richmond,Staten Island,10305,200,"70 Father Capodanno Boulevard
Staten Island, NY 10305
(40.594259985000065, -74.06264003999996)"
The Cambridge,4 West Main Street,Washington,Cambridge,12816,40,"4 West Main Street
Cambridge, NY 12816
(43.028082991000076, -73.38095893199994)"
The Mohawk Homestead,62 East Main Street,Herkimer,Mohawk,13407,41,"62 East Main Street
Mohawk, NY 13407
(43.012299995000035, -74.99953003399997)"
"Hyde Park Assisted Living Facility, Inc.",394 Violet Avenue,Dutchess,Poughkeepsie,12601,78,"394 Violet Avenue
Poughkeepsie, NY 12601
(41.73943901500007, -73.90868199699997)"
Genesee Adult Home,278 Bank Street,Genesee,Batavia,14020,80,"278 Bank Street
Batavia, NY 14020
(43.00871058300004, -78.17608664399995)"
"Sutton Gardens, LLC",147-02 34th Avenue,Queens,Flushing,11354,47,"147-02 34th Avenue
Flushing, NY 11354
(40.76707001800003, -73.81964397299998)"
Christian Fellowship House,369 Split Rock Road,Nassau,Syosset,11791,45,"369 Split Rock Road
Syosset, NY 11791
(40.83564702000007, -73.51973503499994)"
Heathwood Assisted Living at Williamsville,815 Hopkins Road,Erie,Williamsville,14221,115,"815 Hopkins Road
Williamsville, NY 14221
(43.000670985000056, -78.73886702499993)"
The Glen at Maple Pointe,260 Maple Avenue,Nassau,Rockville Center,11570,60,"260 Maple Avenue
Rockville Center, NY 11570
(40.65809098600005, -73.63186101099996)"
Kenwood Manor,141 Rockefeller Road,Albany,Delmar,12054,67,"141 Rockefeller Road
Delmar, NY 12054
(42.62548199500003, -73.80340596399998)"
Mount View Assisted Living,5465 Upper Mountain Road,Niagara,Lockport,14094,156,"5465 Upper Mountain Road
Lockport, NY 14094
(43.17567498100004, -78.73933196899998)"
"Surfside Manor Home for Adults, LLC",95-02 Rockaway Beach Boulevard,Queens,Rockaway Beach,11693,200,"95-02 Rockaway Beach Boulevard
Rockaway Beach, NY 11693
(40.58565001000005, -73.81762602999999)"
"The Sentinel of Amsterdam, LLC",10 Market Street,Montgomery,Amsterdam,12010,150,"10 Market Street
Amsterdam, NY 12010
(42.93821000600008, -74.19368003199997)"
Lincoln Rest Home,12 Lincoln Avenue,Westchester,Ardsley,10502,23,"12 Lincoln Avenue
Ardsley, NY 10502
(41.00953798300003, -73.84439296699998)"
Horizons,3132 State Route 21 South,Ontario,Canandaigua,14424,76,"3132 State Route 21 South
Canandaigua, NY 14424
(42.896816484000055, -77.26727133499998)"
St. Michael's Home,3 Lehman Terrace,Westchester,Yonkers,10705,60,"3 Lehman Terrace
Yonkers, NY 10705
(40.913980012000025, -73.90140298499995)"
Cook Adult Home,1 Prospect Street,Saratoga,Mechanicville,12118,13,"1 Prospect Street
Mechanicville, NY 12118
(42.90102298000005, -73.69608600299995)"
Chester Hill Adult Home,187 Cottage Avenue,Westchester,Mount Vernon,10550,21,"187 Cottage Avenue
Mount Vernon, NY 10550
(40.91764101800004, -73.83311302099997)"
Camillus Ridge Terrace,2453 W. Genesee Turnpike,Onondaga,Camillus,13031,56,"2453 W. Genesee Turnpike
Camillus, NY 13031
(43.03609692800006, -76.33842484199994)"
Claddagh Care (L.B.S.H.) EHP #1,34 Church Street Suite 1,St. Lawrence,Brasher Falls,13613,28,"34 Church Street Suite 1
Brasher Falls, NY 13613
(44.80254099000007, -74.77295897699997)"
Sunrise of Smithtown,"30 Hauppauge, Route 111",Suffolk,Smithtown,11787,104,"30 Hauppauge, Route 111
Smithtown, NY 11787
(40.854936604000045, -73.18761093099994)"
Kendal on Hudson,1010 Kendal Way,Westchester,Sleepy Hollow,10591,47,"1010 Kendal Way
Sleepy Hollow, NY 10591
(41.10902300200007, -73.86704799399996)"
Brandywine Senior Living at Huntington Terrace,70 Pinelawn Road,Suffolk,Melville,11747,54,"70 Pinelawn Road
Melville, NY 11747
(40.77994801600005, -73.40525097799997)"
The Landing of Brighton,1350 Westfall Road,Monroe,Rochester,14618,121,"1350 Westfall Road
Rochester, NY 14618
(43.11688100100008, -77.58200202999996)"
The Pavilion at Vestal,105 West Sheedy Road,Broome,Vestal,13850,40,"105 West Sheedy Road
Vestal, NY 13850
(42.053434999000046, -76.03330703299997)"
Garden House For Adults,91 Walnut Street,Broome,Binghamton,13905,24,"91 Walnut Street
Binghamton, NY 13905
(42.10130400600008, -75.92332598599995)"
Amber Court of Brooklyn,650 East 104th Street,Kings,Brooklyn,11236,224,"650 East 104th Street
Brooklyn, NY 11236
(40.64905998800003, -73.89789297899995)"
"Briarwood Manor, Inc.",1001 Lincoln Avenue,Niagara,Lockport,14094,160,"1001 Lincoln Avenue
Lockport, NY 14094
(43.15367701100007, -78.66865198999994)"
Westminster Manor,81 South Street,Cayuga,Auburn,13021,37,"81 South Street
Auburn, NY 13021
(42.92522099000007, -76.56654803899994)"
East Road Adult Home,7731 East Road,Lewis,Lowville,13367,20,"7731 East Road
Lowville, NY 13367
(43.84369099700007, -75.51331496599994)"
Brookdale Clinton,115 Brookside Drive,Oneida,Clinton,13323,40,"115 Brookside Drive
Clinton, NY 13323
(43.039806363000025, -75.36023126999999)"
Samuel F. Vilas Home,61 Beekman Street,Clinton,Plattsburgh,12901,44,"61 Beekman Street
Plattsburgh, NY 12901
(44.698968998000055, -73.46715896099994)"
Glenmere at Cloverwood,One Wheatley Terrace,Monroe,Pittsford,14534,77,"One Wheatley Terrace
Pittsford, NY 14534
(43.08333398500008, -77.54710196399998)"
Brookdale Fayetteville,5125 Highbridge Street,Onondaga,Fayetteville,13066,52,"5125 Highbridge Street
Fayetteville, NY 13066
(43.01907500400006, -76.01196503099999)"
Atria Riverdale,3718-3726 Henry Hudson Parkway,Bronx,Riverdale,10463,195,"3718-3726 Henry Hudson Parkway
Riverdale, NY 10463
(40.88832308700006, -73.91016206699999)"
The Bristal at West Babylon,520 Montauk Highway (Unit A),Suffolk,West Babylon,11704,187,"520 Montauk Highway (Unit A)
West Babylon, NY 11704
(40.688084203000074, -73.34026454499997)"
Brooklyn Boulevard ALP,636 Louisiana Avenue,Kings,Brooklyn,11239,184,"636 Louisiana Avenue
Brooklyn, NY 11239
(40.64682000800008, -73.88565104199995)"
Brightview Lake Tappan,31 Hunt Road,Rockland,Orangeburg,10962,85,"31 Hunt Road
Orangeburg, NY 10962
(41.042426015000046, -73.98786097499993)"
Laurelwood at the Highlands,300 Hahnemann Trail,Monroe,Pittsford,14534,68,"300 Hahnemann Trail
Pittsford, NY 14534
(43.085383988000046, -77.49718697599997)"
Atria Huntington,165 Beverly Road,Suffolk,Huntington,11746,198,"165 Beverly Road
Huntington, NY 11746
(40.82954298300007, -73.38113599099995)"
Rochester Presbyterian Home,256 Thurston Road,Monroe,Rochester,14619,102,"256 Thurston Road
Rochester, NY 14619
(43.13975601100003, -77.65039299499995)"
Ingersoll Place,3359 Consaul Road,Schenectady,Schenectady,12304,78,"3359 Consaul Road
Schenectady, NY 12304
(42.78039201300004, -73.88743403999996)"
Parkview Home for Adults,3200 Bronx Boulevard,Bronx,Bronx,10467,134,"3200 Bronx Boulevard
Bronx, NY 10467
(40.871739998000066, -73.87022699899995)"
Faatz-Crofut Home for the Elderly,46 Grant Avenue,Cayuga,Auburn,13021,53,"46 Grant Avenue
Auburn, NY 13021
(42.93814399900003, -76.55539197699994)"
Brookdale Manlius,100 Flume Road,Onondaga,Manlius,13104,86,"100 Flume Road
Manlius, NY 13104
(43.00028898000005, -75.97871603299996)"
Brookdale East Side,7164 East Genesee Street,Onondaga,Fayetteville,13066,88,"7164 East Genesee Street
Fayetteville, NY 13066
(43.02587800800006, -76.02701297799996)"
Chenango County Home Preston Manor,"1150 County Road 4  RFD #2, Box 203",Chenango,Oxford,13830,48,"1150 County Road 4  RFD #2, Box 203
Oxford, NY 13830
(42.52686999400004, -75.60884996999994)"
Brompton Heights,275 Brompton Road,Erie,Williamsville,14221,200,"275 Brompton Road
Williamsville, NY 14221
(42.97342401600008, -78.70721796499998)"
Adirondack Manor Home for Adults-Camden,128 Main Street,Oneida,Camden,13316,40,"128 Main Street
Camden, NY 13316
(43.33890998900006, -75.74919001899997)"
Heather Heights of Pittsford,160 West Jefferson Road,Monroe,Pittsford,14534,120,"160 West Jefferson Road
Pittsford, NY 14534
(43.08793598500006, -77.53128799499996)"
NY Found-Sr Citizens EHP#4 Ridge Street Gardens,80-92 Ridge Street,New York,New York,10002,47,"80-92 Ridge Street
New York, NY 10002
(40.71798001900004, -73.98354496499996)"
Brookdale Vestal West,421 Plaza Drive,Broome,Vestal,13850,65,"421 Plaza Drive
Vestal, NY 13850
(42.08974599000004, -75.95473197099994)"
Maplewood Assisted Living,205 State Street Road,St. Lawrence,Canton,13617,48,"205 State Street Road
Canton, NY 13617
(44.61398002000004, -75.16162003199997)"
Inspire of McClelland,126 Old Castle Point Road,Dutchess,Wappinger Falls,12590,75,"126 Old Castle Point Road
Wappinger Falls, NY 12590
(41.53884643300006, -73.96539603699995)"
The Pavilion at Pine Valley,661 North Main Street,Rockland,Spring Valley,10977,56,"661 North Main Street
Spring Valley, NY 10977
(41.13689899000008, -74.03988300499998)"
Atria Delmar Place,467 Delaware Ave,Albany,Delmar,12054,106,"467 Delaware Ave
Delmar, NY 12054
(42.61950800300008, -73.84289101399997)"
Brandywine Senior Living at Huntington Terrace,70 Pinelawn Road,Suffolk,Melville,11747,110,"70 Pinelawn Road
Melville, NY 11747
(40.77994801600005, -73.40525097799997)"
Tappan Zee Manor,51 Mountainview Avenue,Rockland,Nyack,10960,150,"51 Mountainview Avenue
Nyack, NY 10960
(41.09629600400007, -73.93381395999995)"
Hultquist Place,715 Falconer Street,Chautauqua,Jamestown,14701,96,"715 Falconer Street
Jamestown, NY 14701
(42.11482099800003, -79.20925297699995)"
Ashton Place,190 Ashton Court,Ontario,Clifton Springs,14432,60,"190 Ashton Court
Clifton Springs, NY 14432
(42.96663400400007, -77.14184197499998)"
Cumberland Gardens NY Foundation EHP #6,425 Cumberland Street,Kings,Brooklyn,11201,47,"425 Cumberland Street
Brooklyn, NY 11201
(40.68304001400003, -73.97164098599995)"
Countryside Adult Home,353 Schroon River Road,Warren,Warrensburg,12885,48,"353 Schroon River Road
Warrensburg, NY 12885
(43.51136001900005, -73.75035999999994)"
Memory Garden,560 Fairmount Avenue,Chautauqua,Jamestown,14701,56,"560 Fairmount Avenue
Jamestown, NY 14701
(42.09747402100004, -79.27216502799996)"
Babylon Beach House Home for Adults,23 Yacht Club Road,Suffolk,Babylon,11702,67,"23 Yacht Club Road
Babylon, NY 11702
(40.68474598300003, -73.31606803199998)"
The Plaza at Clover Lake,838 Fair Street,Putnam,Carmel,10512,175,"838 Fair Street
Carmel, NY 10512
(41.46984000300006, -73.63944001199997)"
Sunrise of Glen Cove,39 Forest Avenue,Nassau,Glen Cove,11542,111,"39 Forest Avenue
Glen Cove, NY 11542
(40.871678014000054, -73.62712498499997)"
The Northfield,4560 Nine Mile Point Road,Monroe,Fairport,14450,79,"4560 Nine Mile Point Road
Fairport, NY 14450
(43.11233101100004, -77.44054802599999)"
Wavecrest Home for Adults,242 Beach 20th Street,Queens,Far Rockaway,11691,120,"242 Beach 20th Street
Far Rockaway, NY 11691
(40.59660000300005, -73.75405298299995)"
Woodview Court,1015 Saw Mill River Road,Westchester,Ardsley,10502,40,"1015 Saw Mill River Road
Ardsley, NY 10502
(41.022001999000054, -73.84395802999995)"
Symphony Manor at Lancaster,5539 Broadway,Erie,Lancaster,14086,117,"5539 Broadway
Lancaster, NY 14086
(42.898485435000055, -78.66393278699996)"
Kings Adult Care Center,2255 Cropsey Avenue,Kings,Brooklyn,11214,200,"2255 Cropsey Avenue
Brooklyn, NY 11214
(40.59602999200007, -73.99676900999998)"
"Evergreen Place, Enhanced, Assisted Living & Memory Care",90 West Avenue,Monroe,Brockport,14420,114,"90 West Avenue
Brockport, NY 14420
(43.222911993000025, -77.94220702599995)"
Brookdale Niskayuna,1786 Union Street,Schenectady,Niskayuna,12309,110,"1786 Union Street
Niskayuna, NY 12309
(42.80102398400004, -73.89784796799995)"
Legacy at Maiden Park,749 Maiden Lane,Monroe,Rochester,14615,98,"749 Maiden Lane
Rochester, NY 14615
(43.22217099100004, -77.66410302299994)"
Mary Agnes Manor ALP,307 Porter Avenue,Erie,Buffalo,14201,230,"307 Porter Avenue
Buffalo, NY 14201
(42.90191719500007, -78.89089411799995)"
Orchard Estate of Woodbury,900 Woodbury Road,Nassau,Woodbury,11797,105,"900 Woodbury Road
Woodbury, NY 11797
(40.79740400000003, -73.48579897199994)"
Lutheran Home of Central New York,108 Utica Road,Oneida,Clinton,13323,68,"108 Utica Road
Clinton, NY 13323
(43.05620000400006, -75.36448999999999)"
Pinecrest Home For Adults,7 Charlesworth Avenue,Steuben,Avoca,14809,17,"7 Charlesworth Avenue
Avoca, NY 14809
(42.41039800100003, -77.41803800599996)"
The Landing of Poughkeepsie,251 Boardman Road,Dutchess,Poughkeepsie,12603,121,"251 Boardman Road
Poughkeepsie, NY 12603
(41.659342009000056, -73.89234801499998)"
L'Dor,156 West Clarkstown Road,Rockland,New City,10956,44,"156 West Clarkstown Road
New City, NY 10956
(41.13556999800005, -74.02185202299995)"
Atria Glen Cove,146 Glen Street,Nassau,Glen Cove,11542,128,"146 Glen Street
Glen Cove, NY 11542
(40.86265300900004, -73.62478601399994)"
The Terrace at The Eddy Memorial,2256 Burdett Avenue,Rensselaer,Troy,12180,69,"2256 Burdett Avenue
Troy, NY 12180
(42.734826018000035, -73.66985601099998)"
Brightview Sayville,455 Broadway Avenue,Suffolk,Sayville,11782,92,"455 Broadway Avenue
Sayville, NY 11782
(40.76580589900004, -73.06624740499996)"
Green Briar Adult Home,26 Old Route 82,Dutchess,Millbrook,12545,53,"26 Old Route 82
Millbrook, NY 12545
(41.77180819100005, -73.70071294199994)"
Peregrine Senior Living at Colonie,5 South Family Drive,Albany,Colonie,12205,68,"5 South Family Drive
Colonie, NY 12205
(42.73280400900006, -73.82418302499997)"
Sunrise of East Meadow,1555 Glenn Curtiss Blvd.,Nassau,East Meadow,11554,107,"1555 Glenn Curtiss Blvd.
East Meadow, NY 11554
(40.717419018000044, -73.57572002999996)"
Braemar Living at Wallkill,21 Riverside Drive,Orange,Middletown,10941,200,"21 Riverside Drive
Middletown, NY 10941
(41.450517998000066, -74.34916802399994)"
Sunnydale Home,809 Stuart Avenue,Westchester,Mamaroneck,10543,17,"809 Stuart Avenue
Mamaroneck, NY 10543
(40.95211000200004, -73.72442002099996)"
Randolph Manor,40 East Main Street,Cattaraugus,Randolph,14772,50,"40 East Main Street
Randolph, NY 14772
(42.16400600600008, -78.96932996799995)"
The Arbors at Bohemia,1065 Smithtown Avenue,Suffolk,Bohemia,11716,200,"1065 Smithtown Avenue
Bohemia, NY 11716
(40.76824398700006, -73.10660603099996)"
Canterbury Woods Gates Circle,1 Gates Circle,Erie,Buffalo,14209,5,"1 Gates Circle
Buffalo, NY 14209
(42.92031436600007, -78.86751361799998)"
Loretto EHP #3 Nottingham,1301 Nottingham Road,Onondaga,Jamesville,13078,64,"1301 Nottingham Road
Jamesville, NY 13078
(43.01182998000007, -76.08513401599998)"
Wheatfield Commons,3920 Forest Parkway,Niagara,North Tonawanda,14120,114,"3920 Forest Parkway
North Tonawanda, NY 14120
(43.06271319500007, -78.83351782399995)"
Arkell Hall,55 Montgomery Street,Montgomery,Canajoharie,13317,24,"55 Montgomery Street
Canajoharie, NY 13317
(42.90463998100006, -74.56894001699999)"
Olsen Rest,P.O. Box 256 366 Gibbs Pond,Suffolk,Nesconset,11767,40,"P.O. Box 256 366 Gibbs Pond
Nesconset, NY 11767
(40.83178907800004, -73.13394552899996)"
St. Zita's Villa,50 Saddle River Road,Rockland,Monsey,10952,35,"50 Saddle River Road
Monsey, NY 10952
(41.11167000700004, -74.07258801799998)"
Hudson Valley Senior Residence,80 Washington Avenue,Ulster,Kingston,12401,48,"80 Washington Avenue
Kingston, NY 12401
(41.92614800400003, -74.01617403799997)"
River View Gardens NY Foundation EHP #8,4-12 49th Avenue,Queens,Long Island City,11101,46,"4-12 49th Avenue
Long Island City, NY 11101
(40.74409999900007, -73.95801896899997)"
The Brielle at Seaview,140 Friendship Lane,Richmond,Staten Island,10314,188,"140 Friendship Lane
Staten Island, NY 10314
(40.59518999900007, -74.13066798499995)"
Sunrise of Fleetwood,500 North Columbus Avenue,Westchester,Mount Vernon,10552,136,"500 North Columbus Avenue
Mount Vernon, NY 10552
(40.92734701000006, -73.82167398599995)"
Eden Heights of West Seneca,3030 Clinton Street,Erie,West Seneca,14224,120,"3030 Clinton Street
West Seneca, NY 14224
(42.86290900000006, -78.76640501399999)"
New Windsor Country Inn,450 Temple Hill Road P.O. Box 4328,Orange,New Windsor,12553,86,"450 Temple Hill Road P.O. Box 4328
New Windsor, NY 12553
(41.479737983000064, -74.06180604099995)"
"Moffat Gardens ALP, Inc",22 Moffat Street,Kings,Brooklyn,11207,30,"22 Moffat Street
Brooklyn, NY 11207
(40.683719996000036, -73.90995504099999)"
The Bristal at Westbury,117 Post Ave.,Nassau,Westbury,11590,180,"117 Post Ave.
Westbury, NY 11590
(40.75234800100003, -73.58833001599999)"
Peregrine's Landing Senior Community,575 Cayuga Creek Road,Erie,Cheektowaga,14227,112,"575 Cayuga Creek Road
Cheektowaga, NY 14227
(42.87761199000005, -78.76478998899995)"
Bridges Cornell Heights - The Colonial,403 Wyckoff Avenue,Tompkins,Ithaca,14850,13,"403 Wyckoff Avenue
Ithaca, NY 14850
(42.45585201400007, -76.48383198099998)"
The Ambassador at Scarsdale,9 Saxon Woods Road,Westchester,White Plains,10605,138,"9 Saxon Woods Road
White Plains, NY 10605
(40.98894509400003, -73.74650353999994)"
Ghent Assisted Living,30 Whittier Way,Columbia,Ghent,12075,80,"30 Whittier Way
Ghent, NY 12075
(42.282022261000066, -73.70570115399994)"
Long Beach Assisted Living,274 West Broadway,Nassau,Long Beach,11561,200,"274 West Broadway
Long Beach, NY 11561
(40.58432198200006, -73.67221199599999)"
Vista on 5th,1261 Fifth Avenue,New York,New York,10029,127,"1261 Fifth Avenue
New York, NY 10029
(40.79530999100007, -73.95012195899994)"
New South Shore Manor,1041 East 83rd Street,Kings,Brooklyn,11236,74,"1041 East 83rd Street
Brooklyn, NY 11236
(40.63466000400007, -73.90831998299996)"
Atria Penfield,2006 Five Mile Line Road,Monroe,Penfield,14526,120,"2006 Five Mile Line Road
Penfield, NY 14526
(43.138142998000035, -77.47404001499996)"
GreenField Terrace,5979 Broadway Street,Erie,Lancaster,14086,56,"5979 Broadway Street
Lancaster, NY 14086
(42.89420400900008, -78.62832799499995)"
"Woodside Hall, LLC",1 Main Street,Otsego,Cooperstown,13326,37,"1 Main Street
Cooperstown, NY 13326
(42.69900000300004, -74.91612003899996)"
Gurwin Jewish Fay J. Lindner Residence,50 Hauppauge Road,Suffolk,Commack,11725,65,"50 Hauppauge Road
Commack, NY 11725
(40.82965601300003, -73.29795901399996)"
The Knolls,55 Grasslands Road,Westchester,Valhalla,10595,12,"55 Grasslands Road
Valhalla, NY 10595
(41.06998898100005, -73.78337497499996)"
Leroy Manor,8678 Lake Street Road,Genesee,Leroy,14482,79,"8678 Lake Street Road
Leroy, NY 14482
(42.99330999700004, -77.98936998399995)"
Ahana House,31 Sixth Street,Saratoga,Waterford,12188,17,"31 Sixth Street
Waterford, NY 12188
(42.79321100200008, -73.68076597999993)"
Masonic Home,2150 Bleecker Street,Oneida,Utica,13501,96,"2150 Bleecker Street
Utica, NY 13501
(43.08905999800004, -75.18953000899995)"
The Bristal at East Northport,760 Larkfield Road,Suffolk,East Northport,11731,166,"760 Larkfield Road
East Northport, NY 11731
(40.838234011000054, -73.31337500999996)"
Somerset Gardens,150 Sunnyside Boulevard,Nassau,Plainview,11803,160,"150 Sunnyside Boulevard
Plainview, NY 11803
(40.79512600800007, -73.46995398999996)"
Home of the Good Shepherd,390 Church Street,Saratoga,Saratoga Springs,12866,42,"390 Church Street
Saratoga Springs, NY 12866
(43.08563402100003, -73.81921901099997)"
Park Terrace at Radisson,2981 Town Center Road,Onondaga,Baldwinsville,13027,65,"2981 Town Center Road
Baldwinsville, NY 13027
(43.17797698700008, -76.29974300799995)"
Foltsbrook Center for Senior Living,104 North Washington Street,Herkimer,Herkimer,13350,80,"104 North Washington Street
Herkimer, NY 13350
(43.02723000900005, -74.98471996499995)"
The Athenaeum of Skaneateles,150 Genesee Street,Onondaga,Skaneateles,13152,16,"150 Genesee Street
Skaneateles, NY 13152
(42.94427100200005, -76.41890399899995)"
The Bristal at Garden City,1001 Axinn Avenue,Nassau,Garden City,11530,170,"1001 Axinn Avenue
Garden City, NY 11530
(40.74024974400004, -73.60642751399996)"
Marjorie Doyle Rockwell Center,18 Pasinella Way,Albany,Cohoes,12047,52,"18 Pasinella Way
Cohoes, NY 12047
(42.775695004000056, -73.72562902699997)"
Elderwood Assisted Living at Wheatfield,2600 Niagara Falls Boulevard,Niagara,Niagara Falls,14304,65,"2600 Niagara Falls Boulevard
Niagara Falls, NY 14304
(43.08956299600004, -78.90724797699994)"
The Terrace at Newark,208 Route 88 South,Wayne,Newark,14513,71,"208 Route 88 South
Newark, NY 14513
(43.019719991000045, -77.09233996299997)"
Gurwin Jewish Fay J. Lindner Residence,50 Hauppauge Road,Suffolk,Commack,11725,200,"50 Hauppauge Road
Commack, NY 11725
(40.82965601300003, -73.29795901399996)"
The Arbors at Hauppauge,1740 Express Drive South,Suffolk,Hauppauge,11788,200,"1740 Express Drive South
Hauppauge, NY 11788
(40.805839003000074, -73.23090303399994)"
Harbor House,150 South Street,Nassau,Oyster Bay,11771,136,"150 South Street
Oyster Bay, NY 11771
(40.87091400300005, -73.53148897799997)"
The Avalon Assisted Living and Wellness Center,1629 Route 376,Dutchess,Wappingers Falls,12590,76,"1629 Route 376
Wappingers Falls, NY 12590
(41.62760498100005, -73.87631200899995)"
Elderwood Village at Greece,1404 Long Pond Road,Monroe,Rochester,14626,72,"1404 Long Pond Road
Rochester, NY 14626
(43.200208015000044, -77.69739996499999)"
Ideal Senior Living Center,600 High Avenue,Broome,Endicott,13760,70,"600 High Avenue
Endicott, NY 13760
(42.091462017000026, -76.06809897199997)"
Maryville Assisted Living,70 Greenlawn Road,Suffolk,Huntington,11743,32,"70 Greenlawn Road
Huntington, NY 11743
(40.87329199100003, -73.39338102999994)"
The New Village View SP LLC,1 Grove Street,Ulster,Highland,12528,80,"1 Grove Street
Highland, NY 12528
(41.719989018000035, -73.96608797599998)"
The Bristal at Mount Sinai,400 Sutton Court,Suffolk,Mount Sinai,11766,157,"400 Sutton Court
Mount Sinai, NY 11766
(40.91855910000004, -73.00273799999997)"
Alpine Manor,2714 Poplar Hill Road,Livingston,Lima,14485,41,"2714 Poplar Hill Road
Lima, NY 14485
(42.86842001700006, -77.66069996999994)"
The Country House in Westchester,2000 Baldwin Road,Westchester,Yorktown Heights,10598,100,"2000 Baldwin Road
Yorktown Heights, NY 10598
(41.27677698700006, -73.79337299299993)"
New Monsey Park Home,15 Monsey Boulevard,Rockland,Monsey,10952,263,"15 Monsey Boulevard
Monsey, NY 10952
(41.11441998300006, -74.06075402799996)"
Frederic Fleming Residence,443-445 West 22nd Street,New York,New York,10011,47,"443-445 West 22nd Street
New York, NY 10011
(40.74651000600005, -74.00313196399998)"
The Bristal at Lake Success,69 North Service Road,Nassau,Lake Success,11020,110,"69 North Service Road
Lake Success, NY 11020
(40.77044201600006, -73.70591797599997)"
Bridges Cornell Heights - The Tudor,407 Wyckoff Avenue,Tompkins,Ithaca,14850,15,"407 Wyckoff Avenue
Ithaca, NY 14850
(42.45592799600007, -76.48418796099998)"
Peregrine's Landing at Orchard Park,101 Sterling Drive,Erie,Orchard Park,14127,52,"101 Sterling Drive
Orchard Park, NY 14127
(42.78993598300008, -78.76566002999994)"
The Bristal at White Plains,305 North Street,Westchester,White Plains,10605,190,"305 North Street
White Plains, NY 10605
(41.02684099700008, -73.74771500599996)"
"Central Assisted Living, LLC",1509 Central Avenue,Queens,Far Rockaway,11691,186,"1509 Central Avenue
Far Rockaway, NY 11691
(40.60564001100005, -73.75121503799994)"
Keene Valley Neighborhood House,1782 Route 73,Essex,Keene Valley,12943,50,"1782 Route 73
Keene Valley, NY 12943
(44.18921999400004, -73.78505998899993)"
New Haven Manor,1526 New Haven Avenue,Queens,Far Rockaway,11691,123,"1526 New Haven Avenue
Far Rockaway, NY 11691
(40.599500016000036, -73.74937202499996)"
Woodhaven Home for Adults,1350 Route 112,Suffolk,Port Jefferson Sta.,11776,181,"1350 Route 112
Port Jefferson Sta., NY 11776
(40.915930984000056, -73.03592596799996)"
Fairport Baptist Homes Adult Care Facility,4646 Nine Mile Point Road,Monroe,Fairport,14450,42,"4646 Nine Mile Point Road
Fairport, NY 14450
(43.10964301800004, -77.44022498699997)"
Brookdale Hospital Medical Center ALP,558-578 Rockaway Parkway,Kings,Brooklyn,11212,43,"558-578 Rockaway Parkway
Brooklyn, NY 11212
(40.65453777000005, -73.91289436199997)"
Brookdale Lakewood,220 Southwestern Drive,Chautauqua,Lakewood,14750,100,"220 Southwestern Drive
Lakewood, NY 14750
(42.09439400700006, -79.29788196399994)"
Five Star Premier Residences of Yonkers,537 Riverdale Avenue,Westchester,Yonkers,10705,40,"537 Riverdale Avenue
Yonkers, NY 10705
(40.91373400300006, -73.90327600499995)"
Pine Harbour,15 New Hampshire Street,Clinton,Plattsburgh,12903,66,"15 New Hampshire Street
Plattsburgh, NY 12903
(44.67639575800007, -73.44324231599995)"
Keepsake Village at Greenpoint,138 Old Liverpool Road,Onondaga,Liverpool,13088,57,"138 Old Liverpool Road
Liverpool, NY 13088
(43.084014008000054, -76.17953897299998)"
Bronxwood,799 East Gun Hill Road,Bronx,Bronx,10467,320,"799 East Gun Hill Road
Bronx, NY 10467
(40.87621999900006, -73.86228497799993)"
Presbyterian Residential Community,4300 Middle Settlement Road,Oneida,New Hartford,13413,96,"4300 Middle Settlement Road
New Hartford, NY 13413
(43.073242710000045, -75.34258272099999)"
Garden of Eden Assisted Living Program,1608-1620 Stillwell Avenue,Kings,Brooklyn,11223,201,"1608-1620 Stillwell Avenue
Brooklyn, NY 11223
(40.60687998800006, -73.98738798399995)"
Sue's Rest,396 Canisteo Street,Steuben,Hornell,14843,14,"396 Canisteo Street
Hornell, NY 14843
(42.31516700800006, -77.66026100999994)"
Garden House,2720 North Forest Road,Erie,Getzville,14068,48,"2720 North Forest Road
Getzville, NY 14068
(43.015885593000064, -78.78637756199998)"
St. Francis Commons,12 Burkle Street,Oswego,Oswego,13126,60,"12 Burkle Street
Oswego, NY 13126
(43.44766300300006, -76.49252803799999)"
Marchand Manor,"121 Main Street, Route 10",Schoharie,Sharon Springs,13459,36,"121 Main Street, Route 10
Sharon Springs, NY 13459
(42.79101599100005, -74.62050498199994)"
NY Found-Sr Citizens EHP#3,1850 Second Avenue,New York,New York,10128,39,"1850 Second Avenue
New York, NY 10128
(40.783900000000074, -73.94702903599995)"
Seneca Lake Terrace Assisted Living Center,3670 Pre-emption Road County Rd. #6,Ontario,Geneva,14456,66,"3670 Pre-emption Road County Rd. #6
Geneva, NY 14456
(42.852631795000036, -77.01061632299997)"
"Tanglewood Manor, Inc.",560 Fairmount Avenue,Chautauqua,Jamestown,14701,158,"560 Fairmount Avenue
Jamestown, NY 14701
(42.09747402100004, -79.27216502799996)"
Elizabeth Brewster House,41 South Main Street,Cortland,Homer,13077,45,"41 South Main Street
Homer, NY 13077
(42.63530998600004, -76.17772001599997)"
Brookdale Pittsford,159 Sully's Trail,Monroe,Pittsford,14534,52,"159 Sully's Trail
Pittsford, NY 14534
(43.05800999200005, -77.46767001999996)"
Wolk Manor Enriched Living Center,4000 Summit Circle Drive,Monroe,Rochester,14618,85,"4000 Summit Circle Drive
Rochester, NY 14618
(43.106220017000055, -77.58405802699997)"
Heathwood Assisted Living at Penfield,100 Elderwood Court,Monroe,Penfield,14526,151,"100 Elderwood Court
Penfield, NY 14526
(43.13647998600004, -77.44125797299995)"
Hampshire House Adult Home,1846 County Highway 48,Otsego,Oneonta,13820,65,"1846 County Highway 48
Oneonta, NY 13820
(42.43760000100008, -75.08223997199997)"
The Bristal at Holtsville,5535 Expressway Drive North,Suffolk,Holtsville,11742,166,"5535 Expressway Drive North
Holtsville, NY 11742
(40.82366363800003, -73.02468141399999)"
The New Jewish Home University Avenue Assisted Living,2553 University Avenue,Bronx,Bronx,10468,72,"2553 University Avenue
Bronx, NY 10468
(40.86725999600003, -73.90214696199996)"
"Mariners Residence, Inc.",2099 Forest Avenue,Richmond,Staten Island,10303,270,"2099 Forest Avenue
Staten Island, NY 10303
(40.62696998500007, -74.15902102999996)"
The Mansion at South Union,11 South Union Street,Washington,Cambridge,12816,44,"11 South Union Street
Cambridge, NY 12816
(43.02654998500003, -73.38574000299997)"
Echo Arms Adult Home,204 Patchogue Road,Suffolk,Port Jefferson Stat.,11776,49,"204 Patchogue Road
Port Jefferson Stat., NY 11776
(40.93145179600003, -73.05272483599998)"
Pineview Commons H.F.A.,201 South Melcher Street,Fulton,Johnstown,12095,94,"201 South Melcher Street
Johnstown, NY 12095
(43.001820018000046, -74.37669997799998)"
Castle Senior Living at Forest Hills,108-25 Horace Harding Expressway,Queens,Forest Hills,11368,20,"108-25 Horace Harding Expressway
Forest Hills, NY 11368
(40.73851999900006, -73.85142203099997)"
Dawn Hill Adult Home,65 Lisa Drive,Suffolk,North Port,11768,30,"65 Lisa Drive
North Port, NY 11768
(40.89215399700004, -73.34924796299998)"
"Seaview Manor, LLC",210 Beach 47th Street,Queens,Far Rockaway,11691,118,"210 Beach 47th Street
Far Rockaway, NY 11691
(40.59315001200008, -73.77776899099996)"
The Cloisters,171 North Maple Street,Wyoming,Warsaw,14569,48,"171 North Maple Street
Warsaw, NY 14569
(42.745887992000064, -78.13947302199995)"
Elderwood Village at Vestal,505 Clubhouse Road,Broome,Vestal,13850,116,"505 Clubhouse Road
Vestal, NY 13850
(42.08652398600003, -75.95373796099994)"
Gallagher Home,517 North Lake Boulevard,Putnam,Mahopac,10541,16,"517 North Lake Boulevard
Mahopac, NY 10541
(41.39063001200003, -73.73454996999999)"
Oceanview Manor Home for Adults,3010 West 33rd Street,Kings,Brooklyn,11224,176,"3010 West 33rd Street
Brooklyn, NY 11224
(40.57234998400003, -73.99925198099999)"
Massry Residence at Daughters of Sarah,182 Washington Ave. Extension,Albany,Albany,12203,70,"182 Washington Ave. Extension
Albany, NY 12203
(42.69953598400008, -73.85353200799995)"
The Terraces at Brookmeade,54 Brookmeade Drive,Dutchess,Rhinebeck,12572,29,"54 Brookmeade Drive
Rhinebeck, NY 12572
(41.92689701100005, -73.89245396199993)"
The Hamlet at Park Ridge,1471 Long Pond Road,Monroe,Rochester,14626,66,"1471 Long Pond Road
Rochester, NY 14626
(43.195108004000076, -77.70481400999995)"
St. Joseph's Home,125 Sisters Servants Lane P.O. Box 8,Rockland,Sloatsburg,10974,31,"125 Sisters Servants Lane P.O. Box 8
Sloatsburg, NY 10974
(41.144934008000064, -74.22667296299994)"
The Eliot at Erie Station ALP,10 - 18 John Street,Orange,Middletown,10940,96,"10 - 18 John Street
Middletown, NY 10940
(41.44771601100007, -74.42029098699999)"
Sachem Adult Home,1298 Coates Avenue,Suffolk,Holbrook,11741,46,"1298 Coates Avenue
Holbrook, NY 11741
(40.79774899900008, -73.08044896099995)"
Assisted Living at Jennings Hall,260 Powers Street,Kings,Brooklyn,11211,40,"260 Powers Street
Brooklyn, NY 11211
(40.712739989000056, -73.94001396999994)"
The Terrace at the Glen at Hiland Meadows,71 Longview Drive,Warren,Queensbury,12804,52,"71 Longview Drive
Queensbury, NY 12804
(43.35272998700003, -73.64150003199995)"
North Brook Heights Home for Adults,170 Murray Street Extension,Cayuga,Auburn,13021,178,"170 Murray Street Extension
Auburn, NY 13021
(42.949786001000064, -76.55493197799996)"
VillageCare at 46 and Ten,510 West 46th Street,New York,New York,10036,89,"510 West 46th Street
New York, NY 10036
(40.76231001900004, -73.99421202699995)"
Rodden Home,15 Wittridge Street,Suffolk,Lake Ronkonkoma,11779,23,"15 Wittridge Street
Lake Ronkonkoma, NY 11779
(40.81969399500008, -73.10941103499994)"
The Amsterdam at Harborside,300 East Overlook,Nassau,Port Washington,11050,55,"300 East Overlook
Port Washington, NY 11050
(40.82670901900008, -73.66412002299995)"
Whisper Woods of Smithtown,71 St. Johnland Road,Suffolk,Smithtown,11787,136,"71 St. Johnland Road
Smithtown, NY 11787
(40.86789058700003, -73.22001629799996)"
Park Creek Senior Living Community,410 Mill Street,Erie,Amherst,14221,94,"410 Mill Street
Amherst, NY 14221
(42.97546999700006, -78.74715899099994)"
"Hawthorne Ridge, Inc.",30 Community Way,Rensselaer,East Greenbush,12061,66,"30 Community Way
East Greenbush, NY 12061
(42.61488798200003, -73.69638800299998)"
Maple House,15 Maple Place,Westchester,Ossining,10562,25,"15 Maple Place
Ossining, NY 10562
(41.16018199000007, -73.86238497399995)"
Ken-Ton Presbyterian Village EHP,3735 Delaware Avenue,Erie,Kenmore,14217,49,"3735 Delaware Avenue
Kenmore, NY 14217
(42.985805009000046, -78.87251596799996)"
Elderwood Assisted Living at Waverly,44 Ball Street,Tioga,Waverly,14892,40,"44 Ball Street
Waverly, NY 14892
(42.012028592000036, -76.52986964399997)"
Grande'ville Senior Living Community,555 Maiden Lane,Monroe,Rochester,14616,115,"555 Maiden Lane
Rochester, NY 14616
(43.22305000100005, -77.65707001899995)"
New Rochelle Home for Adults,41 Lockwood Ave.,Westchester,New Rochelle,10801,250,"41 Lockwood Ave.
New Rochelle, NY 10801
(40.91455098700004, -73.78656001499996)"
Culinarians' Home Foundation,71 Old Tschirky Road,Ulster,New Paltz,12561,18,"71 Old Tschirky Road
New Paltz, NY 12561
(41.80494289100005, -74.06360887199997)"
Atria Plainview,12 Washington Avenue,Nassau,Plainview,11803,99,"12 Washington Avenue
Plainview, NY 11803
(40.778861009000025, -73.46549699699995)"
Brookdale Williamsville,6076 Main Street,Erie,Williamsville,14221,52,"6076 Main Street
Williamsville, NY 14221
(42.966901009000026, -78.72708299099997)"
"Lakeside Manor Home for Adults, Inc.",797 Brighton Avenue,Richmond,Staten Island,10301,200,"797 Brighton Avenue
Staten Island, NY 10301
(40.63246998000005, -74.09698497199997)"
Atria on the Hudson,321 North Highland Avenue,Westchester,Ossining,10562,185,"321 North Highland Avenue
Ossining, NY 10562
(41.178905988000054, -73.87074198299996)"
Promenade at Middletown,70 Fulton Street,Orange,Middletown,10940,200,"70 Fulton Street
Middletown, NY 10940
(41.44141605900006, -74.42043654399998)"
Eden Heights of Olean,161 South Twenty-Fifth Street,Cattaraugus,Olean,14760,120,"161 South Twenty-Fifth Street
Olean, NY 14760
(42.074399019000055, -78.45863804099997)"
Brookdale Liverpool,4055 Long Branch Road,Onondaga,Liverpool,13090,80,"4055 Long Branch Road
Liverpool, NY 13090
(43.12581401500006, -76.23359101599993)"
Good Shepherd Village at Endwell,14 Village Drive,Broome,Endwell,13760,32,"14 Village Drive
Endwell, NY 13760
(42.14747199000004, -76.02171997399995)"
Atria West 86,333 West 86th Street,New York,New York,10024,189,"333 West 86th Street
New York, NY 10024
(40.78967001800004, -73.97933004099997)"
St. Nicholas Home,437 Ovington Avenue,Kings,Brooklyn,11209,75,"437 Ovington Avenue
Brooklyn, NY 11209
(40.63336001300007, -74.02265199199996)"
Chai Home,125-02 Ocean Promenade,Queens,Belle Harbor,11694,71,"125-02 Ocean Promenade
Belle Harbor, NY 11694
(40.57513000900008, -73.84365703599997)"
Old Peoples Russian Orthodox Convent,100 Smith Road,Rockland,Nanuet,10954,76,"100 Smith Road
Nanuet, NY 10954
(41.11068701900007, -74.02399100099996)"
Family Srvs/Rochester EHP1 Danforth Towers East,140 West Avenue,Monroe,Rochester,14611,28,"140 West Avenue
Rochester, NY 14611
(43.15074301000004, -77.64157900499998)"
The Women's Christian Association,134 Temple Street,Chautauqua,Fredonia,14063,42,"134 Temple Street
Fredonia, NY 14063
(42.44387599300006, -79.33732401499998)"
The Courtyards LLC,5285 South Park Avenue,Erie,Hamburg,14075,133,"5285 South Park Avenue
Hamburg, NY 14075
(42.75306101600006, -78.82597000299995)"
Brookdale East Niskayuna,2861 Troy-Schenectady Road,Schenectady,Niskayuna,12309,52,"2861 Troy-Schenectady Road
Niskayuna, NY 12309
(42.77971798200008, -73.84269797899998)"
Cobbs Hill Manor,1175 Monroe Avenue,Monroe,Rochester,14620,118,"1175 Monroe Avenue
Rochester, NY 14620
(43.13716700900005, -77.57978400999997)"
Meadowbrook Terrace Assisted Living Facility,21957 Cole Road,Jefferson,Carthage,13619,60,"21957 Cole Road
Carthage, NY 13619
(43.98722300000003, -75.64772498599996)"
Maryville Home For Adults,7678 County Road 70,Steuben,Avoca,14809,14,"7678 County Road 70
Avoca, NY 14809
(42.37267101300006, -77.50728800799999)"
RiverSpring Assisted Living,5901 Palisades Avenue,Bronx,Bronx,10471,35,"5901 Palisades Avenue
Bronx, NY 10471
(40.91021000000006, -73.90875097999998)"
Elderwood Village at Colonie,626 Watervliet-Shaker Road,Albany,Latham,12110,94,"626 Watervliet-Shaker Road
Latham, NY 12110
(42.73529498500005, -73.76925599499998)"
"Hedgewood ALP, LLC",355 Fishkill Avenue,Dutchess,Beacon,12508,192,"355 Fishkill Avenue
Beacon, NY 12508
(41.50858199800007, -73.95555301299999)"
Loretto Village Apts. Enriched Housing Site #5,750 East Brighton Avenue,Onondaga,Syracuse,13205,79,"750 East Brighton Avenue
Syracuse, NY 13205
(43.00839298100004, -76.13719502299995)"
Blocher Homes,135 Evans Street,Erie,Williamsville,14221,65,"135 Evans Street
Williamsville, NY 14221
(42.96757701000007, -78.73833200799999)"
Woodbrook,1250 Maple Avenue,Chemung,Elmira,14904,80,"1250 Maple Avenue
Elmira, NY 14904
(42.067580005000025, -76.78957002999994)"
"Evergreen Court Home for Adults SP, LLC",65 Lafayette Street,Rockland,Spring Valley,10977,200,"65 Lafayette Street
Spring Valley, NY 10977
(41.11435799900005, -74.04000496199995)"
Plattduetsche Home Society,1150 Hempstead Turnpike,Nassau,Franklin Square,11010,91,"1150 Hempstead Turnpike
Franklin Square, NY 11010
(40.708721998000044, -73.68272700999995)"
Sunrise of Plainview,1231 Old Country Road,Nassau,Plainview,11803,65,"1231 Old Country Road
Plainview, NY 11803
(40.77597801100006, -73.46045603699997)"
The Arbors at Islandia East,1515A Veterans Memorial Highway,Suffolk,Islandia,11749,200,"1515A Veterans Memorial Highway
Islandia, NY 11749
(40.81015958100005, -73.18635644399995)"
Crestview Manor ALP,150 Old Saw Mill River Road,Westchester,Hawthorne,10532,76,"150 Old Saw Mill River Road
Hawthorne, NY 10532
(41.085429211000076, -73.82182344499995)"
Sarah Jane Sanford Home,69 Guy Park Avenue,Montgomery,Amsterdam,12010,40,"69 Guy Park Avenue
Amsterdam, NY 12010
(42.94167001400007, -74.19428000899995)"
The New Swan Lake Adult Home LLC,Route 55 Box 247,Sullivan,Swan Lake,12783,27,"Route 55 Box 247
Swan Lake, NY 12783
(41.73240411900008, -74.79274598099994)"
Brookdale Niagara Memory Care,6751 Nash Road,Niagara,North Tonawanda,14120,40,"6751 Nash Road
North Tonawanda, NY 14120
(43.09669499000006, -78.86486303899994)"
Sunrise of New City,233 North Main Street,Rockland,New City,10956,120,"233 North Main Street
New City, NY 10956
(41.159480005000034, -73.98947499399998)"
Brandywine Assisted Living at The Savoy,55-15 Little Neck Parkway,Queens,Little Neck,11362,160,"55-15 Little Neck Parkway
Little Neck, NY 11362
(40.76509000300007, -73.72405599499996)"
The Springvale Inn,62 Springvale Rd.,Westchester,Croton-on-Hudson,10520,125,"62 Springvale Rd.
Croton-on-Hudson, NY 10520
(41.23245840300007, -73.91655669199997)"
Elderwood Assisted Living at Hamburg,76 Buffalo Street,Erie,Hamburg,14075,103,"76 Buffalo Street
Hamburg, NY 14075
(42.71812499200007, -78.82968704199999)"
Village Green A Carlisle Assisted Living Community,90 Schoolhouse Road,Nassau,Levittown,11756,77,"90 Schoolhouse Road
Levittown, NY 11756
(40.72927097300004, -73.53176541899995)"
The Hearth on James,830 James Street,Onondaga,Syracuse,13203,60,"830 James Street
Syracuse, NY 13203
(43.056418981000036, -76.13949099399997)"
Brooklyn Adult Care Center,2830 Pitkin Avenue,Kings,Brooklyn,11208,210,"2830 Pitkin Avenue
Brooklyn, NY 11208
(40.67587998300007, -73.86744596699998)"
Kalet's Adult Home,504 Delaware Street,Onondaga,Syracuse,13204,45,"504 Delaware Street
Syracuse, NY 13204
(43.03769598900004, -76.16949996699998)"
The Vincent Bove Center at Jefferson Ferry,One Jefferson Ferry Drive,Suffolk,South Setauket,11720,87,"One Jefferson Ferry Drive
South Setauket, NY 11720
(40.89900315600005, -73.07687958699995)"
Mount Alverno Center,20 Grand Street,Orange,Warwick,10990,85,"20 Grand Street
Warwick, NY 10990
(41.26327001100003, -74.36087100499998)"
The Arbors at Islandia West,1515 Veterans Memorial Highway,Suffolk,Islandia,11749,200,"1515 Veterans Memorial Highway
Islandia, NY 11749
(40.81015958100005, -73.18635644399995)"
The New Falls,117 Schuyler Street,Schuyler,Montour Falls,14865,111,"117 Schuyler Street
Montour Falls, NY 14865
(42.34628000400005, -76.84978000699994)"
Hilltop Manor West,286 Deyo Hill Road,Broome,Johnson City,13790,98,"286 Deyo Hill Road
Johnson City, NY 13790
(42.14486999500008, -75.95853199099997)"
Grande'Vie Senior Living,2140 Five Mile Line Road,Monroe,Penfield,14526,178,"2140 Five Mile Line Road
Penfield, NY 14526
(43.128712016000065, -77.47414998599999)"
Carnegie East House,1844 Second Avenue,New York,New York,10128,112,"1844 Second Avenue
New York, NY 10128
(40.78371999800004, -73.94724202099997)"
Brooklyn Terrace,2316 Surf Avenue,Kings,Brooklyn,11224,200,"2316 Surf Avenue
Brooklyn, NY 11224
(40.573629984000036, -73.99018603099995)"
Metro Interfaith Housing,21 New Street,Broome,Binghamton,13903,11,"21 New Street
Binghamton, NY 13903
(42.09027400800005, -75.91084197899994)"
St. Columban's on the Lake,"2546 Lake Road, Route 5",Chautauqua,Silver Creek,14136,57,"2546 Lake Road, Route 5
Silver Creek, NY 14136
(42.53550800600004, -79.23135303899994)"
The Terrace at Glen Eddy,1 Ascot Lane,Schenectady,Niskayuna,12309,53,"1 Ascot Lane
Niskayuna, NY 12309
(42.776418944000056, -73.87838941699994)"
Sage Harbor at Baywinde,100 Kidd Castle Way,Monroe,Webster,14580,88,"100 Kidd Castle Way
Webster, NY 14580
(43.19362398900006, -77.50926102399995)"
Greece Long Pond Senior Housing,1 GBC Parkway,Monroe,Rochester,14626,30,"1 GBC Parkway
Rochester, NY 14626
(43.21408601600007, -77.69366498899996)"
New Fordham Arms Assisted Living,2915 Williamsbridge Road,Bronx,Bronx,10467,35,"2915 Williamsbridge Road
Bronx, NY 10467
(40.868270016000054, -73.86230802799997)"
Atria South Setauket,4089 Nesconset Highway,Suffolk,Centereach,11720,200,"4089 Nesconset Highway
Centereach, NY 11720
(40.90349400000008, -73.07240702799999)"
The Terrace at Woodland,8299 Turin Road,Oneida,Rome,13440,60,"8299 Turin Road
Rome, NY 13440
(43.26470001300004, -75.46434998299998)"
"Eger Harbor House, Inc.",110 Meisner Avenue,Richmond,Staten Island,10306,75,"110 Meisner Avenue
Staten Island, NY 10306
(40.58028001800005, -74.13087200099994)"
Manlius Home for Adults,215 East Pleasant Street,Onondaga,Manlius,13104,39,"215 East Pleasant Street
Manlius, NY 13104
(43.003474019000066, -75.97710896999996)"
The Bristal at East Meadow,40 Merrick Ave.,Nassau,East Meadow,11554,151,"40 Merrick Ave.
East Meadow, NY 11554
(40.72137401900005, -73.57856803299995)"
Apple Gate Adult Home,400 Ohio Street,Orleans,Medina,14103,28,"400 Ohio Street
Medina, NY 14103
(43.22120002100007, -78.39705445299995)"
Elderwood Assisted Living at Tonawanda,111 Ensminger Road,Erie,Tonawanda,14150,120,"111 Ensminger Road
Tonawanda, NY 14150
(42.988683983000044, -78.88806699699995)"
Island Assisted Living,800-820 Front Street,Nassau,Hempstead,11550,200,"800-820 Front Street
Hempstead, NY 11550
(40.70875498000004, -73.60254102999994)"
The Bristal at North Hills,99 South Service Road,Nassau,North Hills,11040,60,"99 South Service Road
North Hills, NY 11040
(40.77034179300006, -73.68789924599997)"
"Millview of Latham, LLC",514 Old Loudon Road,Albany,Cohoes,12047,55,"514 Old Loudon Road
Cohoes, NY 12047
(42.788993729000026, -73.73905505799996)"
The Inn at Menorah Park,4101 East Genesee Street,Onondaga,Syracuse,13214,61,"4101 East Genesee Street
Syracuse, NY 13214
(43.038276016000054, -76.07598701299997)"
Willing Helpers' Home for Women,"226 West Madison Ave, P.O. Box O",Fulton,Johnstown,12095,20,"226 West Madison Ave, P.O. Box O
Johnstown, NY 12095
(42.99921001900003, -74.37816999599994)"
"Valley Residential Services, Inc.",161 Valley Drive,Herkimer,Herkimer,13350,76,"161 Valley Drive
Herkimer, NY 13350
(43.04177853200008, -74.95531698999997)"
"Madison York Assisted Living Community, LLC",112-14 Corona Avenue,Queens,Flushing,11368,226,"112-14 Corona Avenue
Flushing, NY 11368
(40.739630014000056, -73.84824596099998)"
Bickford Home,56 Main Street,Wayne,Macedon,14502,24,"56 Main Street
Macedon, NY 14502
(43.06872998500006, -77.30233002299997)"
Heritage Manor of Ransomville Assisted Living Program,3509 Ransomville Road,Niagara,Ransomville,14131,142,"3509 Ransomville Road
Ransomville, NY 14131
(43.24462099600004, -78.90865404099998)"
"New Homestead Home for Adults, Inc.",82-45 Grenfell Street,Queens,Kew Gardens,11415,163,"82-45 Grenfell Street
Kew Gardens, NY 11415
(40.70894998500006, -73.83082803099995)"
Vassar-Warner Home,52 South Hamilton Street,Dutchess,Poughkeepsie,12601,58,"52 South Hamilton Street
Poughkeepsie, NY 12601
(41.69913899200003, -73.92457400199999)"
RPH East,20 Crossing Creek Drive,Monroe,Fairport,14450,64,"20 Crossing Creek Drive
Fairport, NY 14450
(43.069006383000044, -77.40563594699995)"
Sunrise of Huntington,300 West Hills Road,Suffolk,Huntington Station,11746,130,"300 West Hills Road
Huntington Station, NY 11746
(40.827355013000044, -73.42095103699995)"
The Bristal at Sayville,129 Lakeland Avenue,Suffolk,Sayville,11782,155,"129 Lakeland Avenue
Sayville, NY 11782
(40.74454768700008, -73.08749496599995)"
Beacon Pointe Memory Care Community,1 Emma Lane,Saratoga,Clifton Park,12065,52,"1 Emma Lane
Clifton Park, NY 12065
(42.867299986000035, -73.79550803199999)"
Westchester Center for Independent and Assisted Living,75 Stratton Street South,Westchester,Yonkers,10701,195,"75 Stratton Street South
Yonkers, NY 10701
(40.94255304100005, -73.87639178599994)"
Elderwood Assisted Living at West Seneca,580 Orchard Park Road,Erie,West Seneca,14224,128,"580 Orchard Park Road
West Seneca, NY 14224
(42.83357598500004, -78.77699898499998)"
Pounder Hall EHP,1400 Utica Street,Oneida,Oriskany,13424,10,"1400 Utica Street
Oriskany, NY 13424
(43.16184999600006, -75.34109996399997)"
Brookdale Painted Post,120 Creekside Drive,Steuben,Painted Post,14870,110,"120 Creekside Drive
Painted Post, NY 14870
(42.14324499600008, -77.12443502499997)"
Home of the Good Shepherd Wilton,60 Waller Road,Saratoga,Wilton,12831,54,"60 Waller Road
Wilton, NY 12831
(43.130838002000075, -73.76835896299997)"
Hidden Gem Home for Adults,11 Wittridge Street,Suffolk,Lake Ronkonkoma,11779,18,"11 Wittridge Street
Lake Ronkonkoma, NY 11779
(40.81965501900004, -73.10909797099998)"
Heritage at The Plains at Parish Homestead,163 Heritage Circle,Otsego,Oneonta,13820,53,"163 Heritage Circle
Oneonta, NY 13820
(42.44432063800008, -75.11341572999999)"
Sunrise of Holbrook,320 Patchogue-Holbrook Road,Suffolk,Holbrook,11741,109,"320 Patchogue-Holbrook Road
Holbrook, NY 11741
(40.78385901200005, -73.04316198099997)"
Mohegan Park,3441 Lexington Avenue,Westchester,Mohegan Lake,10547,150,"3441 Lexington Avenue
Mohegan Lake, NY 10547
(41.31885900200007, -73.86006000199995)"
Sunrise of East Setauket,1 Sunrise Drive,Suffolk,East Setauket,11733,109,"1 Sunrise Drive
East Setauket, NY 11733
(40.93506401900004, -73.10903804099996)"
Home Sweet Home on the Hudson,38 Prospect Avenue,Greene,Catskill,12414,60,"38 Prospect Avenue
Catskill, NY 12414
(42.217360005000046, -73.85746001899997)"
Fredonia Place,50 Howard Street,Chautauqua,Fredonia,14063,84,"50 Howard Street
Fredonia, NY 14063
(42.43151398500004, -79.32641697999998)"
Amber Court of Pelham Gardens,1800 Waring Avenue,Bronx,Bronx,10469,200,"1800 Waring Avenue
Bronx, NY 10469
(40.860490017000075, -73.83398197299994)"
Morgan Estates,4588 Morgan View Road,Livingston,Geneseo,14454,78,"4588 Morgan View Road
Geneseo, NY 14454
(42.79578998800008, -77.77879000499996)"
Crimson Ridge Gardens,1 Treeline Drive,Monroe,Rochester,14612,52,"1 Treeline Drive
Rochester, NY 14612
(43.25202100100006, -77.67502698899995)"
Walden Place,839 Bennie Rd.,Cortland,Cortland,13045,86,"839 Bennie Rd.
Cortland, NY 13045
(42.56520001800004, -76.21961997599993)"
Valehaven Home for Adults,"2989 North Main Street, Box 683",Clinton,Peru,12972,40,"2989 North Main Street, Box 683
Peru, NY 12972
(44.58002501400006, -73.52794502599994)"
Brentland Woods,3831 East Henrietta Road,Monroe,Henrietta,14467,60,"3831 East Henrietta Road
Henrietta, NY 14467
(43.046560019000026, -77.62340301499995)"
Lutheran Home Cottages,114 Utica Road,Oneida,Clinton,13323,14,"114 Utica Road
Clinton, NY 13323
(43.05672001700003, -75.36268001199994)"
"Bayview Rest Home, LLC",143 East Main Street,Suffolk,Babylon,11702,75,"143 East Main Street
Babylon, NY 11702
(40.69719801200006, -73.32066198499996)"
Argyle Center for Independent Living,4573 State Route 40,Washington,Argyle,12809,35,"4573 State Route 40
Argyle, NY 12809
(43.20368000900004, -73.48667001999996)"
Harbor Terrace Adult Home and Assisted Living,110 Henderson Avenue,Richmond,Staten Island,10301,363,"110 Henderson Avenue
Staten Island, NY 10301
(40.64027998600005, -74.09591502199999)"
"Bristol Village, Inc.",8455 Clarence Center Road,Erie,Clarence Center,14032,110,"8455 Clarence Center Road
Clarence Center, NY 14032
(43.012115007000034, -78.67888796999995)"
Elderwood Assisted Living at Cheektowaga,229 Bennett Road,Erie,Cheektowaga,14227,80,"229 Bennett Road
Cheektowaga, NY 14227
(42.888136014000054, -78.74613899699995)"
"West Side Federation For Senior And Supportive Housing, Inc.",109 West 129th Street,New York,New York,10027,99,"109 West 129th Street
New York, NY 10027
(40.81075901200006, -73.94412596399997)"
The Arbors at Westbury,45 Jericho Turnpike,Nassau,Jericho,11753,200,"45 Jericho Turnpike
Jericho, NY 11753
(40.778026071000056, -73.56397932599998)"
The Sentinel of Port Jervis,2247 Greenville Turnpike,Orange,Port Jervis,12771,160,"2247 Greenville Turnpike
Port Jervis, NY 12771
(41.35183801900007, -74.68048202599994)"
"Longview, an Ithacare Community",1 Bella Vista Drive,Tompkins,Ithaca,14850,96,"1 Bella Vista Drive
Ithaca, NY 14850
(42.41584699200007, -76.50401803499994)"
Atria Kew Gardens,117-01 84th Avenue,Queens,Kew Gardens,11418,175,"117-01 84th Avenue
Kew Gardens, NY 11418
(40.704139988000065, -73.83433200099995)"
Adirondack Manor HFA D.B.A Montcalm Manor HFA,45 Montcalm Street,Essex,Ticonderoga,12883,40,"45 Montcalm Street
Ticonderoga, NY 12883
(43.848579993000044, -73.43024002999994)"
Brentwood Adult Home,147 Second Avenue,Suffolk,Brentwood,11717,30,"147 Second Avenue
Brentwood, NY 11717
(40.778680002000044, -73.23257899499998)"
Belle Harbor Manor,209 Beach 125th Street,Queens,Belle Harbor,11694,162,"209 Beach 125th Street
Belle Harbor, NY 11694
(40.577610005000054, -73.84507600899997)"
Elderwood Village at Bassett Park,245 Bassett Road,Erie,Williamsville,14221,105,"245 Bassett Road
Williamsville, NY 14221
(42.99596199000007, -78.72853901199994)"
The Bristal at Massapequa,400 County Line Road,Nassau,Massapequa,11758,86,"400 County Line Road
Massapequa, NY 11758
(40.68509001800004, -73.42656297299999)"
The Amberleigh,2330-40 Maple Road,Erie,Amherst,14221,76,"2330-40 Maple Road
Amherst, NY 14221
(42.990184009000075, -78.70270900399998)"
